{"type":"FeatureCollection","fuente":"bo-geo-maestro/geo/departamentos.geojson (límites del INE); salares asignados al departamento que los rodea; simplificado con topología compartida","features":[{"type":"Feature","properties":{"name":"Chuquisaca","cod_dep":"01"},"geometry":{"type":"MultiPolygon","coordinates":[[[[-65.2498,-21.4824],[-65.2306,-21.3998],[-65.228,-21.3392],[-65.2129,-21.2953],[-65.2235,-21.259],[-65.2118,-21.2547],[-65.2016,-21.2173],[-65.211,-21.19],[-65.1887,-21.162],[-65.1906,-21.1416],[-65.2006,-21.1408],[-65.2031,-21.0844],[-65.1893,-21.0146],[-65.1925,-20.9853],[-65.1861,-20.9637],[-65.1646,-20.9467],[-65.1524,-20.965],[-65.1454,-20.9563],[-65.1392,-20.9659],[-65.1306,-20.9597],[-65.1239,-20.9702],[-65.1092,-20.9712],[-65.1109,-20.9832],[-65.1003,-20.9777],[-65.1033,-20.9706],[-65.0884,-20.9777],[-65.0837,-20.962],[-65.0696,-20.9624],[-65.045,-21.0012],[-65.0514,-21.0098],[-65.0287,-21.0179],[-65.0323,-21.0098],[-65.024,-21.0117],[-65.0264,-21.0287],[-65.0169,-21.0213],[-65.0121,-21.0306],[-65.002,-21.0279],[-65.0037,-21.0161],[-64.9926,-21.0206],[-64.9873,-21.0097],[-64.97,-21.0211],[-64.9763,-21.0282],[-64.9574,-21.0245],[-64.949,-21.0418],[-64.9454,-21.0241],[-64.9335,-21.0277],[-64.9199,-21.0582],[-64.89,-21.0583],[-64.8855,-21.0664],[-64.8962,-21.0723],[-64.8513,-21.091],[-64.8553,-21.1073],[-64.8398,-21.1071],[-64.8386,-21.0944],[-64.799,-21.0967],[-64.7889,-21.0637],[-64.7753,-21.0568],[-64.782,-21.0352],[-64.7691,-21.0245],[-64.7608,-20.9813],[-64.737,-20.9694],[-64.7257,-20.9401],[-64.7023,-20.9325],[-64.6673,-20.9442],[-64.6404,-20.9718],[-64.6035,-20.9852],[-64.547,-21.0825],[-64.5255,-21.0989],[-64.4506,-21.0865],[-64.4304,-21.1034],[-64.4167,-21.1004],[-64.3649,-21.1438],[-64.3421,-21.1468],[-64.292,-21.1338],[-64.2311,-21.1532],[-64.2028,-21.1402],[-64.1894,-21.0922],[-64.2017,-21.0636],[-64.1943,-21.0515],[-64.2005,-21.0386],[-64.1794,-21.0294],[-64.1966,-21.0075],[-64.1839,-20.9943],[-64.1921,-20.9709],[-64.1812,-20.9636],[-64.1937,-20.9566],[-64.1827,-20.9412],[-64.1785,-20.8875],[-64.1603,-20.8878],[-64.1597,-20.9051],[-64.146,-20.9228],[-64.1248,-20.9272],[-64.1124,-20.9136],[-64.0719,-20.9272],[-64.0598,-20.9562],[-64.0232,-20.9629],[-64.0097,-20.9469],[-64.0098,-20.9979],[-63.9989,-21.007],[-62.2616,-21.0037],[-62.2664,-20.5632],[-62.1928,-20.462],[-63.3574,-20.462],[-63.3571,-20.3947],[-63.3908,-20.4005],[-63.3914,-20.3714],[-63.4174,-20.441],[-63.4383,-20.4371],[-63.4645,-20.4543],[-63.5154,-20.4629],[-63.5867,-20.4451],[-63.6214,-20.4652],[-63.6674,-20.4642],[-63.6765,-20.3502],[-63.6648,-20.308],[-63.6996,-20.2311],[-63.6956,-20.2146],[-63.7082,-20.2018],[-63.693,-20.1561],[-63.7066,-20.1273],[-63.7255,-20.1167],[-63.7322,-20.025],[-63.7087,-19.8614],[-63.7213,-19.8111],[-63.721,-19.7286],[-63.7016,-19.656],[-63.7054,-19.6127],[-63.6923,-19.5944],[-63.7044,-19.5909],[-63.7104,-19.5717],[-63.6984,-19.526],[-63.7181,-19.4378],[-63.7198,-19.3973],[-63.711,-19.3783],[-63.729,-19.3494],[-63.7179,-19.3172],[-63.7272,-19.3143],[-63.7247,-19.2823],[-63.7381,-19.2664],[-63.7302,-19.2549],[-63.7508,-19.2241],[-63.7581,-19.1777],[-63.7374,-19.1281],[-63.721,-19.1176],[-63.7072,-19.0447],[-63.7211,-19.0469],[-63.7301,-19.0312],[-63.7404,-19.0416],[-63.7689,-19.0319],[-63.78,-19.0366],[-63.7808,-19.0491],[-63.7954,-19.044],[-63.8103,-19.0547],[-63.8142,-19.0467],[-63.8394,-19.0496],[-63.8477,-19.0369],[-63.9009,-19.0322],[-63.8991,-19.0457],[-63.9109,-19.0591],[-63.9081,-19.162],[-63.9244,-19.1761],[-63.9203,-19.1839],[-63.9614,-19.1737],[-64.0111,-19.1801],[-64.0424,-19.127],[-64.0431,-19.1173],[-64.0324,-19.1125],[-64.044,-19.0988],[-64.0479,-19.056],[-64.0586,-19.0496],[-64.0535,-19.0378],[-64.0654,-19.0272],[-64.0685,-19.0056],[-64.0812,-18.9965],[-64.0894,-19.0012],[-64.1102,-18.9716],[-64.167,-18.9688],[-64.1869,-18.9587],[-64.2013,-18.9388],[-64.2017,-18.9058],[-64.2247,-18.8677],[-64.2901,-18.8225],[-64.2831,-18.813],[-64.2868,-18.7857],[-64.3179,-18.7578],[-64.3099,-18.7495],[-64.3196,-18.7251],[-64.309,-18.6996],[-64.3119,-18.6679],[-64.3292,-18.6655],[-64.3456,-18.6628],[-64.3622,-18.6151],[-64.3708,-18.6231],[-64.4289,-18.6292],[-64.4431,-18.6519],[-64.4697,-18.6685],[-64.5579,-18.6745],[-64.5741,-18.6537],[-64.6216,-18.6329],[-64.6359,-18.605],[-64.6475,-18.6019],[-64.6436,-18.5869],[-64.6524,-18.5724],[-64.6707,-18.5665],[-64.6967,-18.5297],[-64.7075,-18.5389],[-64.7844,-18.526],[-64.7988,-18.494],[-64.8373,-18.4843],[-64.9084,-18.5043],[-64.9596,-18.5437],[-64.9605,-18.5539],[-65.0005,-18.559],[-65.0216,-18.599],[-65.0338,-18.5983],[-65.0476,-18.6158],[-65.0476,-18.6477],[-65.0325,-18.6664],[-65.0435,-18.6818],[-65.0769,-18.659],[-65.0958,-18.6572],[-65.1008,-18.6419],[-65.1461,-18.6156],[-65.1478,-18.6064],[-65.1998,-18.6234],[-65.2153,-18.611],[-65.243,-18.6113],[-65.2378,-18.5557],[-65.2458,-18.506],[-65.2738,-18.5093],[-65.2876,-18.5017],[-65.2973,-18.4556],[-65.3098,-18.443],[-65.3308,-18.4585],[-65.3304,-18.426],[-65.3456,-18.4179],[-65.3518,-18.4333],[-65.3666,-18.4354],[-65.4419,-18.4036],[-65.4555,-18.41],[-65.463,-18.3996],[-65.4893,-18.3999],[-65.5063,-18.3868],[-65.5347,-18.3921],[-65.5455,-18.4044],[-65.5936,-18.3741],[-65.6582,-18.3661],[-65.674,-18.3473],[-65.6938,-18.352],[-65.6842,-18.4167],[-65.6724,-18.4337],[-65.6252,-18.4605],[-65.6239,-18.5011],[-65.5757,-18.5018],[-65.5256,-18.5287],[-65.5143,-18.5475],[-65.496,-18.5358],[-65.5013,-18.5639],[-65.486,-18.5907],[-65.4377,-18.6138],[-65.4227,-18.6049],[-65.3834,-18.6382],[-65.3934,-18.6562],[-65.4108,-18.6517],[-65.4191,-18.6631],[-65.4146,-18.6896],[-65.4006,-18.7019],[-65.4292,-18.748],[-65.4067,-18.7733],[-65.3641,-18.7747],[-65.3569,-18.7858],[-65.3664,-18.7902],[-65.371,-18.7788],[-65.3871,-18.7962],[-65.4059,-18.7749],[-65.4175,-18.7796],[-65.4432,-18.8306],[-65.4288,-18.8369],[-65.4173,-18.8625],[-65.4208,-18.8794],[-65.3976,-18.9183],[-65.4039,-18.9341],[-65.4138,-18.9454],[-65.441,-18.9185],[-65.4587,-18.9295],[-65.4809,-18.9259],[-65.5192,-18.9514],[-65.5324,-18.9765],[-65.5874,-18.9978],[-65.5675,-19.0241],[-65.5586,-19.0625],[-65.5409,-19.0854],[-65.5177,-19.0965],[-65.4959,-19.0896],[-65.4699,-19.1226],[-65.4062,-19.1439],[-65.3897,-19.1767],[-65.393,-19.2044],[-65.3691,-19.2566],[-65.3311,-19.2709],[-65.3092,-19.3066],[-65.232,-19.32],[-65.2152,-19.3439],[-65.175,-19.3557],[-65.1417,-19.378],[-65.0898,-19.3669],[-65.0561,-19.3859],[-65.0078,-19.3529],[-64.9704,-19.3468],[-64.9293,-19.3627],[-64.9141,-19.3544],[-64.8933,-19.3808],[-64.8945,-19.4004],[-64.8793,-19.3973],[-64.8526,-19.4102],[-64.8391,-19.4706],[-64.8232,-19.4835],[-64.8185,-19.5013],[-64.842,-19.5906],[-64.8106,-19.6255],[-64.7869,-19.6344],[-64.7879,-19.653],[-64.7418,-19.707],[-64.725,-19.7732],[-64.7146,-19.7797],[-64.7393,-19.7899],[-64.7759,-19.8401],[-64.795,-19.9028],[-64.8107,-19.9252],[-64.8292,-19.9331],[-64.8508,-19.9811],[-64.859,-19.9745],[-64.8718,-19.981],[-64.893,-19.9569],[-64.8947,-19.9144],[-64.9192,-19.8609],[-64.9143,-19.8421],[-64.9279,-19.8438],[-64.9416,-19.8765],[-64.9913,-19.8529],[-64.995,-19.8323],[-65.0298,-19.7949],[-65.0567,-19.7936],[-65.0527,-19.8203],[-65.0831,-19.9319],[-65.0596,-19.9501],[-65.0906,-20.0093],[-65.1046,-20.0165],[-65.1522,-20.0124],[-65.2033,-19.938],[-65.2223,-19.9359],[-65.2725,-19.9965],[-65.2703,-20.0038],[-65.305,-20.0094],[-65.2936,-20.0483],[-65.283,-20.0522],[-65.2685,-20.0925],[-65.2389,-20.1163],[-65.2326,-20.1405],[-65.2572,-20.1586],[-65.2713,-20.1514],[-65.3016,-20.1777],[-65.315,-20.1926],[-65.3156,-20.2251],[-65.2824,-20.2329],[-65.2452,-20.2762],[-65.2218,-20.3212],[-65.2312,-20.3323],[-65.2291,-20.3526],[-65.2515,-20.3801],[-65.2434,-20.4146],[-65.2615,-20.4236],[-65.2563,-20.4426],[-65.2712,-20.457],[-65.2686,-20.5047],[-65.3276,-20.5119],[-65.3501,-20.5484],[-65.3877,-20.5575],[-65.3808,-20.5883],[-65.3546,-20.6022],[-65.3472,-20.6223],[-65.3645,-20.6771],[-65.3569,-20.7258],[-65.376,-20.7518],[-65.3492,-20.8214],[-65.3464,-20.8635],[-65.3538,-20.8732],[-65.3767,-20.8698],[-65.3947,-20.8931],[-65.4019,-20.9353],[-65.4203,-20.9686],[-65.3991,-21.0073],[-65.4206,-21.0613],[-65.4025,-21.1602],[-65.4416,-21.181],[-65.4302,-21.3151],[-65.437,-21.4266],[-65.4077,-21.4319],[-65.3985,-21.4549],[-65.402,-21.5002],[-65.3877,-21.5163],[-65.3534,-21.5008],[-65.3201,-21.5173],[-65.3116,-21.4858],[-65.2848,-21.4939],[-65.2498,-21.4824]]]]}},{"type":"Feature","properties":{"name":"La Paz","cod_dep":"02"},"geometry":{"type":"MultiPolygon","coordinates":[[[[-68.8304,-16.2466],[-68.8306,-16.2371],[-68.8818,-16.2012],[-68.9601,-16.1744],[-68.9763,-16.1406],[-69.0122,-16.1128],[-69.132,-16.0586],[-69.1151,-16.0972],[-69.0934,-16.1017],[-69.0826,-16.1249],[-69.0939,-16.1292],[-69.0751,-16.1494],[-69.0931,-16.16],[-69.097,-16.1768],[-69.1238,-16.187],[-69.1241,-16.2009],[-69.1125,-16.1965],[-69.0974,-16.2087],[-69.0981,-16.2258],[-69.078,-16.2207],[-69.0554,-16.1982],[-69.0084,-16.2196],[-68.9988,-16.1997],[-68.9681,-16.1916],[-68.9167,-16.2057],[-68.9188,-16.2146],[-68.889,-16.234],[-68.8977,-16.2462],[-68.8838,-16.265],[-68.8371,-16.273],[-68.8304,-16.2466]]],[[[-68.652,-12.4977],[-68.6606,-12.5187],[-68.6551,-12.5351],[-68.6802,-12.5228],[-68.6733,-12.5505],[-68.6918,-12.5582],[-68.6996,-12.573],[-68.6923,-12.5851],[-68.7014,-12.5809],[-68.7153,-12.6061],[-68.7311,-12.6099],[-68.7411,-12.6338],[-68.731,-12.6532],[-68.735,-12.6671],[-68.7223,-12.6677],[-68.7121,-12.6821],[-68.7358,-12.6945],[-68.7253,-12.6923],[-68.7259,-12.6991],[-68.743,-12.711],[-68.7289,-12.7138],[-68.7649,-12.7417],[-68.7779,-12.7337],[-68.7907,-12.7604],[-68.805,-12.758],[-68.8049,-12.7827],[-68.8186,-12.7922],[-68.8073,-12.8076],[-68.8244,-12.8052],[-68.8393,-12.8225],[-68.8288,-12.8295],[-68.8392,-12.8304],[-68.8338,-12.8576],[-68.8519,-12.8669],[-68.8573,-12.8582],[-68.8712,-12.8707],[-68.8639,-12.8739],[-68.8731,-12.8875],[-68.8655,-12.8964],[-68.8754,-12.9166],[-68.8604,-12.9247],[-68.875,-12.9378],[-68.8588,-12.9473],[-68.8739,-12.9453],[-68.8833,-12.9566],[-68.8742,-12.9653],[-68.8767,-12.9787],[-68.867,-12.9701],[-68.8614,-12.9799],[-68.8789,-12.9869],[-68.866,-12.9958],[-68.8755,-13.0155],[-68.8525,-13.0176],[-68.8675,-13.032],[-68.8516,-13.0334],[-68.8493,-13.0452],[-68.8636,-13.048],[-68.8559,-13.067],[-68.8699,-13.0819],[-68.8607,-13.0984],[-68.8752,-13.1161],[-68.8662,-13.1189],[-68.8782,-13.1379],[-68.8671,-13.1353],[-68.8719,-13.1477],[-68.862,-13.1511],[-68.8674,-13.1717],[-68.8565,-13.1726],[-68.8601,-13.1842],[-68.8727,-13.1825],[-68.8524,-13.212],[-68.8621,-13.213],[-68.8634,-13.2253],[-68.8546,-13.2232],[-68.8569,-13.2369],[-68.8456,-13.246],[-68.861,-13.2581],[-68.8496,-13.2714],[-68.8623,-13.2722],[-68.8582,-13.2968],[-68.8691,-13.2985],[-68.8599,-13.3123],[-68.88,-13.3316],[-68.8685,-13.3327],[-68.8803,-13.3424],[-68.8687,-13.3538],[-68.8785,-13.3722],[-68.8882,-13.3729],[-68.8821,-13.3811],[-68.891,-13.3821],[-68.8838,-13.3915],[-68.8945,-13.4008],[-68.8852,-13.4045],[-68.8969,-13.4126],[-68.8916,-13.4313],[-68.9003,-13.4355],[-68.8966,-13.4459],[-68.9051,-13.4409],[-68.8955,-13.4636],[-68.9154,-13.4834],[-68.9074,-13.4862],[-68.9229,-13.5099],[-68.9143,-13.5126],[-68.9179,-13.5204],[-68.9313,-13.5203],[-68.9329,-13.5298],[-68.9382,-13.5202],[-68.9509,-13.5368],[-68.9454,-13.5557],[-68.9584,-13.5894],[-68.9531,-13.605],[-68.9711,-13.6013],[-68.9717,-13.6105],[-69.0047,-13.6251],[-68.99,-13.6353],[-68.9935,-13.6512],[-69.0309,-13.6549],[-69.0353,-13.6391],[-69.0631,-13.6591],[-69.067,-13.6725],[-69.0672,-13.6875],[-69.0357,-13.7162],[-69.0266,-13.7389],[-69.0083,-13.7383],[-68.9785,-13.7586],[-68.9761,-13.8136],[-68.966,-13.8274],[-68.9803,-13.8541],[-68.9851,-13.9093],[-68.9833,-13.9301],[-68.9639,-13.9475],[-68.9791,-13.9742],[-68.9603,-14.001],[-68.9466,-14.0035],[-68.9375,-14.0255],[-68.8965,-14.0419],[-68.8844,-14.0562],[-68.8841,-14.0848],[-68.8758,-14.0871],[-68.8716,-14.1112],[-68.8327,-14.1506],[-68.8559,-14.1644],[-68.8464,-14.1974],[-68.8266,-14.2159],[-68.9616,-14.2194],[-68.969,-14.2337],[-68.9858,-14.2383],[-68.9885,-14.2513],[-68.9787,-14.2635],[-69.0154,-14.3162],[-68.9848,-14.3736],[-69.0043,-14.3921],[-69.0047,-14.4034],[-69.0242,-14.4063],[-69.0291,-14.426],[-69.0824,-14.4446],[-69.0974,-14.4847],[-69.1143,-14.4873],[-69.116,-14.5025],[-69.1483,-14.5125],[-69.1373,-14.5621],[-69.1434,-14.5746],[-69.1652,-14.5836],[-69.2215,-14.5809],[-69.2324,-14.6183],[-69.2283,-14.6541],[-69.248,-14.6636],[-69.2587,-14.6849],[-69.2335,-14.7242],[-69.2328,-14.7543],[-69.2661,-14.7672],[-69.302,-14.7662],[-69.3501,-14.7967],[-69.3568,-14.852],[-69.3437,-14.8823],[-69.3651,-14.9462],[-69.349,-14.9803],[-69.33,-14.9957],[-69.3149,-15.0408],[-69.2996,-15.0492],[-69.304,-15.0552],[-69.2829,-15.099],[-69.2662,-15.1174],[-69.2619,-15.1098],[-69.2427,-15.1135],[-69.2418,-15.123],[-69.1899,-15.1602],[-69.1531,-15.1986],[-69.1499,-15.213],[-69.1329,-15.2222],[-69.1324,-15.2458],[-69.1196,-15.2579],[-69.1372,-15.2555],[-69.157,-15.2683],[-69.1761,-15.2616],[-69.1959,-15.3141],[-69.2065,-15.3242],[-69.2154,-15.3176],[-69.2475,-15.371],[-69.2598,-15.374],[-69.2502,-15.4269],[-69.2333,-15.4414],[-69.2406,-15.4606],[-69.2533,-15.4695],[-69.2904,-15.4371],[-69.309,-15.4638],[-69.3143,-15.5183],[-69.3297,-15.5365],[-69.2784,-15.5702],[-69.2948,-15.5771],[-69.2886,-15.6009],[-69.3041,-15.6068],[-69.2838,-15.6325],[-69.2757,-15.6268],[-69.2584,-15.6415],[-69.2644,-15.6538],[-69.2568,-15.6753],[-69.2113,-15.6773],[-69.1878,-15.6563],[-69.1747,-15.6731],[-69.1583,-15.6763],[-69.157,-15.6865],[-69.1474,-15.6858],[-69.1587,-15.6977],[-69.1898,-15.697],[-69.1827,-15.7091],[-69.1112,-15.7284],[-69.1046,-15.7276],[-69.1151,-15.7156],[-69.1046,-15.7167],[-69.0699,-15.7592],[-69.0539,-15.7956],[-69.0327,-15.8073],[-69.0096,-15.8638],[-68.9899,-15.8673],[-68.9785,-15.8897],[-68.9391,-15.899],[-68.8955,-15.9392],[-68.8822,-15.9418],[-68.8454,-15.9255],[-68.7862,-15.9552],[-68.7544,-15.9322],[-68.7401,-15.9462],[-68.7263,-15.9435],[-68.721,-15.9574],[-68.7272,-15.956],[-68.7296,-15.9729],[-68.7527,-15.9792],[-68.7422,-16.0136],[-68.7696,-16.0291],[-68.819,-16.0111],[-68.843,-16.0626],[-68.8729,-16.075],[-68.865,-16.047],[-68.8934,-16.0759],[-68.9049,-16.0735],[-68.8884,-16.0965],[-68.8903,-16.1122],[-68.8644,-16.1433],[-68.867,-16.1645],[-68.8621,-16.1706],[-68.8563,-16.1579],[-68.8472,-16.162],[-68.842,-16.1924],[-68.8563,-16.2045],[-68.8492,-16.2158],[-68.826,-16.2225],[-68.8071,-16.1779],[-68.6585,-16.2196],[-68.6452,-16.2177],[-68.6271,-16.1976],[-68.6013,-16.1974],[-68.5642,-16.2697],[-68.5785,-16.272],[-68.5791,-16.2845],[-68.5836,-16.2766],[-68.6019,-16.2833],[-68.586,-16.3226],[-68.607,-16.3358],[-68.6292,-16.3272],[-68.6339,-16.3358],[-68.6555,-16.3176],[-68.6948,-16.3061],[-68.6911,-16.3252],[-68.715,-16.3207],[-68.7137,-16.3345],[-68.695,-16.3312],[-68.6779,-16.3413],[-68.6764,-16.3542],[-68.6897,-16.3781],[-68.7022,-16.3862],[-68.7095,-16.381],[-68.7283,-16.4219],[-68.7953,-16.4295],[-68.8021,-16.4195],[-68.9467,-16.4374],[-68.9571,-16.4716],[-68.8804,-16.4685],[-68.8259,-16.4882],[-68.84,-16.5151],[-68.8227,-16.5294],[-68.8499,-16.5342],[-68.8294,-16.5585],[-68.8445,-16.5698],[-68.8456,-16.5858],[-68.8739,-16.5989],[-68.9203,-16.5975],[-69.0274,-16.5532],[-69.0403,-16.5727],[-69.0331,-16.6076],[-68.9994,-16.6394],[-68.9879,-16.683],[-69.0154,-16.6692],[-69.0441,-16.6887],[-69.0794,-16.6935],[-69.1006,-16.7113],[-69.1633,-16.7206],[-69.1815,-16.7462],[-69.1877,-16.7967],[-69.1991,-16.7977],[-69.2191,-16.8368],[-69.2533,-16.8605],[-69.3045,-16.9165],[-69.3401,-16.9874],[-69.3681,-16.9886],[-69.3944,-17.0217],[-69.3734,-17.0486],[-69.374,-17.0722],[-69.4325,-17.1104],[-69.4511,-17.094],[-69.5155,-17.1497],[-69.5579,-17.1656],[-69.578,-17.2065],[-69.6035,-17.2195],[-69.6168,-17.2616],[-69.6446,-17.2807],[-69.5759,-17.2914],[-69.4691,-17.3736],[-69.4679,-17.6049],[-69.337,-17.7319],[-69.3333,-17.7656],[-69.3079,-17.8065],[-69.2991,-17.8539],[-69.3086,-17.8958],[-69.2852,-17.9644],[-69.2702,-17.9684],[-69.2562,-17.9539],[-69.2563,-17.975],[-69.2463,-17.9829],[-69.231,-17.9889],[-69.2204,-17.9807],[-69.1705,-17.9926],[-69.165,-18.0013],[-69.1231,-18.0036],[-69.0966,-18.0212],[-69.087,-18.0403],[-69.0751,-18.0414],[-68.9104,-17.9496],[-68.8639,-17.9434],[-68.8104,-17.9211],[-68.768,-17.9233],[-68.7321,-17.8866],[-68.7015,-17.8878],[-68.6534,-17.8672],[-68.6026,-17.798],[-68.5608,-17.8196],[-68.5365,-17.8097],[-68.551,-17.7177],[-68.4568,-17.6671],[-68.4258,-17.6317],[-68.3881,-17.6254],[-68.3679,-17.6063],[-68.3332,-17.6196],[-68.308,-17.5971],[-68.2793,-17.6255],[-68.24,-17.6239],[-68.2296,-17.6394],[-68.189,-17.6598],[-68.1429,-17.671],[-68.0854,-17.7152],[-68.0172,-17.7322],[-67.9062,-17.7928],[-67.7927,-17.8759],[-67.733,-17.8913],[-67.7246,-17.8585],[-67.7053,-17.847],[-67.6962,-17.8031],[-67.733,-17.7757],[-67.71,-17.7178],[-67.6746,-17.7289],[-67.677,-17.7639],[-67.6445,-17.758],[-67.5858,-17.7682],[-67.5859,-17.7121],[-67.5544,-17.7022],[-67.5119,-17.6622],[-67.5087,-17.6426],[-67.5307,-17.6104],[-67.5272,-17.5995],[-67.5488,-17.5801],[-67.5213,-17.5539],[-67.5034,-17.5173],[-67.4837,-17.5217],[-67.4686,-17.5057],[-67.4315,-17.5565],[-67.407,-17.5733],[-67.3867,-17.5681],[-67.391,-17.5409],[-67.3801,-17.5269],[-67.3951,-17.5126],[-67.3944,-17.4764],[-67.3745,-17.4618],[-67.3576,-17.4264],[-67.3277,-17.4209],[-67.2997,-17.3432],[-67.2852,-17.3637],[-67.2776,-17.3448],[-67.2474,-17.3246],[-67.2285,-17.3367],[-67.2033,-17.3363],[-67.194,-17.3486],[-67.1995,-17.3659],[-67.1876,-17.3783],[-67.1903,-17.4167],[-67.181,-17.4263],[-67.1245,-17.4653],[-67.0673,-17.4701],[-67.0576,-17.488],[-67.0316,-17.5049],[-67.0186,-17.5414],[-67.0462,-17.5683],[-67.051,-17.5877],[-67.0104,-17.6294],[-66.9346,-17.6176],[-66.8987,-17.5909],[-66.8839,-17.602],[-66.8731,-17.5793],[-66.878,-17.5412],[-66.8386,-17.5324],[-66.8163,-17.5124],[-66.8345,-17.4772],[-66.8361,-17.4509],[-66.8645,-17.4341],[-66.8768,-17.4152],[-66.8647,-17.3883],[-66.8463,-17.3842],[-66.8455,-17.3531],[-66.8599,-17.3416],[-66.8465,-17.3363],[-66.8425,-17.3189],[-66.878,-17.298],[-66.889,-17.2806],[-66.8773,-17.2346],[-66.8899,-17.2105],[-66.8841,-17.16],[-66.8924,-17.1367],[-66.9348,-17.1024],[-66.9788,-17.0482],[-67.0029,-16.9874],[-67.0061,-16.954],[-66.9919,-16.9334],[-66.9714,-16.9246],[-66.9744,-16.8926],[-66.9245,-16.8356],[-66.8322,-16.8389],[-66.7866,-16.807],[-66.7819,-16.7898],[-66.7629,-16.7821],[-66.7406,-16.7545],[-66.7441,-16.7194],[-66.7586,-16.6924],[-66.7432,-16.6587],[-66.7466,-16.6317],[-66.7325,-16.5904],[-66.7779,-16.5219],[-66.7705,-16.5053],[-66.7894,-16.485],[-66.7837,-16.4212],[-66.7962,-16.3875],[-66.8021,-16.2977],[-66.8192,-16.2713],[-66.8535,-16.2452],[-66.8438,-16.1964],[-66.8896,-16.1169],[-66.9205,-16.0914],[-66.9092,-16.0457],[-66.9217,-16.0013],[-66.9097,-15.9902],[-66.9048,-15.9625],[-66.8688,-15.9354],[-66.8903,-15.8966],[-66.8821,-15.8807],[-66.9014,-15.868],[-66.9065,-15.8427],[-66.8596,-15.783],[-66.8368,-15.7967],[-66.8093,-15.7799],[-66.7954,-15.7851],[-66.8734,-15.694],[-66.9069,-15.6402],[-66.8996,-15.6041],[-66.9343,-15.566],[-66.9318,-15.5515],[-66.9508,-15.5248],[-67.0027,-15.4851],[-67.003,-15.4765],[-67.0632,-15.4431],[-67.0905,-15.4082],[-67.1114,-15.4003],[-67.1168,-15.388],[-67.0891,-15.3538],[-67.0823,-15.3123],[-67.1137,-15.2803],[-67.1357,-15.2732],[-67.1294,-15.2687],[-67.1365,-15.2506],[-67.1273,-15.2489],[-67.1391,-15.2343],[-67.1381,-15.2189],[-67.1571,-15.1848],[-67.1666,-15.1849],[-67.171,-15.1643],[-67.19,-15.1479],[-67.1957,-15.1548],[-67.1921,-15.1372],[-67.2132,-15.1126],[-67.2375,-15.115],[-67.242,-15.0557],[-67.2796,-15.043],[-67.2788,-15.0293],[-67.2913,-15.0372],[-67.2902,-15.0272],[-67.3038,-15.0441],[-67.3153,-15.0371],[-67.3184,-15.0455],[-67.3286,-15.0378],[-67.3355,-15.0441],[-67.3443,-15.03],[-67.3521,-15.0368],[-67.3548,-15.0216],[-67.3607,-15.0324],[-67.3962,-15.0094],[-67.4011,-14.995],[-67.3937,-14.9884],[-67.4136,-14.9929],[-67.4072,-14.9729],[-67.4192,-14.9708],[-67.4133,-14.9523],[-67.4224,-14.9456],[-67.4179,-14.9281],[-67.4286,-14.9222],[-67.4157,-14.9083],[-67.4315,-14.8941],[-67.4011,-14.8631],[-67.4097,-14.8605],[-67.4035,-14.8506],[-67.4105,-14.845],[-67.4031,-14.8435],[-67.4089,-14.8341],[-67.3989,-14.8357],[-67.4068,-14.8267],[-67.3879,-14.8203],[-67.399,-14.8172],[-67.3926,-14.7959],[-67.4041,-14.795],[-67.4144,-14.7624],[-67.4235,-14.7633],[-67.4157,-14.746],[-67.4276,-14.7478],[-67.4271,-14.7357],[-67.437,-14.736],[-67.4795,-14.6977],[-67.476,-14.6864],[-67.4973,-14.6863],[-67.4896,-14.6795],[-67.5139,-14.6577],[-67.5104,-14.6448],[-67.5279,-14.6535],[-67.5216,-14.6393],[-67.5291,-14.6377],[-67.526,-14.615],[-67.5377,-14.5931],[-67.4994,-14.5609],[-67.4967,-14.5223],[-67.4816,-14.5035],[-67.4852,-14.4942],[-67.5091,-14.493],[-67.5345,-14.4478],[-67.5329,-14.4171],[-67.5597,-14.4055],[-67.5417,-14.3861],[-67.5581,-14.3695],[-67.538,-14.3602],[-67.5363,-14.3488],[-67.542,-14.3407],[-67.5596,-14.3469],[-67.5606,-14.3379],[-67.517,-14.2941],[-67.4827,-14.2986],[-67.4731,-14.2919],[-67.4751,-14.28],[-67.5203,-14.2533],[-67.5091,-14.2273],[-67.5339,-14.1945],[-67.5347,-14.1659],[-67.5048,-14.1124],[-67.5152,-14.1033],[-67.5397,-14.1101],[-67.5504,-14.0966],[-67.5456,-14.0874],[-67.5167,-14.0876],[-67.4941,-14.0648],[-67.5484,-14.0315],[-67.527,-14.0172],[-67.5395,-13.9826],[-67.5325,-13.9599],[-67.4847,-13.9151],[-67.4943,-13.9087],[-67.5112,-13.9141],[-67.5119,-13.9062],[-67.4797,-13.884],[-67.4596,-13.8461],[-67.4646,-13.8395],[-67.4864,-13.8536],[-67.4962,-13.8385],[-67.5159,-13.8327],[-67.4817,-13.7946],[-67.5212,-13.7931],[-67.5252,-13.7831],[-67.4839,-13.7664],[-67.4735,-13.7495],[-67.4505,-13.7384],[-67.461,-13.7263],[-67.4588,-13.7127],[-67.4486,-13.7293],[-67.4282,-13.736],[-67.4315,-13.7103],[-67.4171,-13.7043],[-67.4355,-13.6834],[-67.4371,-13.6602],[-67.3934,-13.6407],[-67.3635,-13.6382],[-67.3882,-13.6035],[-67.3633,-13.609],[-67.3645,-13.5876],[-67.3535,-13.5696],[-67.3798,-13.5661],[-67.3819,-13.5386],[-67.4045,-13.5295],[-67.3965,-13.5186],[-67.3754,-13.5159],[-67.3755,-13.4994],[-67.3478,-13.4715],[-67.3601,-13.4692],[-67.3742,-13.4855],[-67.3852,-13.4817],[-67.3888,-13.4562],[-67.3589,-13.4554],[-67.3553,-13.4448],[-67.3959,-13.4377],[-67.3963,-13.4266],[-67.3772,-13.42],[-67.3902,-13.3968],[-67.3287,-13.3658],[-67.3303,-13.3556],[-67.357,-13.3479],[-67.3002,-13.3051],[-67.303,-13.2849],[-67.294,-13.2725],[-67.2861,-13.304],[-67.2664,-13.2928],[-67.2643,-13.2658],[-67.2867,-13.26],[-67.294,-13.2477],[-67.2757,-13.2417],[-67.2653,-13.2572],[-67.2512,-13.2583],[-67.2667,-13.2096],[-67.238,-13.1938],[-67.1979,-13.1953],[-67.2256,-13.1784],[-67.2256,-13.1684],[-67.1602,-13.1664],[-67.1694,-13.1348],[-67.1871,-13.1278],[-67.1834,-13.1209],[-67.166,-13.1238],[-67.1591,-13.103],[-67.1345,-13.0922],[-67.1481,-13.0529],[-67.1148,-13.0479],[-67.1168,-13.0657],[-67.1064,-13.0685],[-67.1009,-13.0532],[-67.1113,-13.0311],[-67.096,-13.0255],[-67.0935,-13.0457],[-67.0654,-13.0287],[-67.0576,-13.0512],[-67.0467,-13.0513],[-67.0434,-13.0131],[-67.0702,-12.9943],[-67.0384,-12.9741],[-67.0466,-12.9531],[-67.0367,-12.9319],[-66.9988,-12.9191],[-67.0336,-12.9089],[-67.0348,-12.8924],[-67.0188,-12.884],[-66.9951,-12.8886],[-66.9902,-12.8512],[-66.9763,-12.8511],[-66.9694,-12.8369],[-66.9465,-12.8388],[-66.944,-12.8234],[-66.9831,-12.8097],[-66.9835,-12.783],[-66.954,-12.8022],[-66.9477,-12.7903],[-66.969,-12.7689],[-66.9831,-12.7333],[-66.9563,-12.7331],[-66.9538,-12.7207],[-66.9717,-12.6924],[-66.9394,-12.685],[-66.9471,-12.671],[-66.9752,-12.6569],[-66.9589,-12.6483],[-66.9535,-12.6259],[-66.9368,-12.6341],[-66.9265,-12.6256],[-66.9467,-12.5993],[-66.977,-12.5927],[-66.9695,-12.5679],[-66.9174,-12.5338],[-66.9555,-12.5085],[-66.9675,-12.49],[-66.9526,-12.4751],[-66.9327,-12.4722],[-66.9674,-12.4264],[-66.9611,-12.413],[-67.9616,-11.8397],[-67.9975,-11.854],[-67.9757,-11.9091],[-67.9812,-11.9414],[-68.0984,-12.0349],[-68.1842,-12.0112],[-68.2366,-12.0128],[-68.2253,-12.1271],[-68.2342,-12.1693],[-68.2443,-12.1874],[-68.2928,-12.2246],[-68.3582,-12.2225],[-68.4041,-12.2543],[-68.415,-12.2746],[-68.4029,-12.3028],[-68.4016,-12.3498],[-68.4193,-12.382],[-68.472,-12.4232],[-68.5137,-12.3967],[-68.5836,-12.3936],[-68.5911,-12.4036],[-68.5586,-12.4542],[-68.6183,-12.4954],[-68.652,-12.4977]]]]}},{"type":"Feature","properties":{"name":"Cochabamba","cod_dep":"03"},"geometry":{"type":"MultiPolygon","coordinates":[[[[-66.7852,-18.1357],[-66.7575,-18.1349],[-66.7247,-18.1159],[-66.6903,-18.1202],[-66.6765,-18.1093],[-66.6389,-18.1193],[-66.6011,-18.0823],[-66.5646,-18.076],[-66.5232,-18.0892],[-66.5335,-18.0584],[-66.4314,-17.9733],[-66.3202,-17.9494],[-66.3092,-17.9618],[-66.2809,-17.966],[-66.2517,-17.9343],[-66.2472,-17.9532],[-66.226,-17.9526],[-66.2193,-17.9376],[-66.197,-17.9262],[-66.1799,-17.9334],[-66.1648,-17.9235],[-66.1522,-17.8907],[-66.1164,-17.8583],[-66.1162,-17.8368],[-66.0969,-17.8072],[-66.0426,-17.8418],[-65.9896,-17.932],[-65.9681,-17.9515],[-65.9535,-17.9469],[-65.944,-17.9553],[-65.9321,-17.9913],[-65.897,-17.9873],[-65.8671,-17.9709],[-65.848,-17.9732],[-65.8083,-18.0088],[-65.7892,-18.014],[-65.7809,-18.0312],[-65.7461,-18.0491],[-65.6906,-18.0969],[-65.6816,-18.1152],[-65.6505,-18.1391],[-65.638,-18.1377],[-65.6037,-18.1781],[-65.5967,-18.2023],[-65.5649,-18.2339],[-65.5029,-18.2563],[-65.4878,-18.2919],[-65.4728,-18.3045],[-65.461,-18.3441],[-65.44,-18.3643],[-65.4044,-18.3675],[-65.3456,-18.4179],[-65.3304,-18.426],[-65.3308,-18.4585],[-65.3098,-18.443],[-65.2973,-18.4556],[-65.2876,-18.5017],[-65.2738,-18.5093],[-65.2458,-18.506],[-65.2378,-18.5557],[-65.243,-18.6113],[-65.2153,-18.611],[-65.1998,-18.6234],[-65.1478,-18.6064],[-65.1461,-18.6156],[-65.1008,-18.6419],[-65.0958,-18.6572],[-65.0769,-18.659],[-65.0435,-18.6818],[-65.0325,-18.6664],[-65.0476,-18.6477],[-65.0476,-18.6158],[-65.0338,-18.5983],[-65.0216,-18.599],[-65.0005,-18.559],[-64.9605,-18.5539],[-64.9596,-18.5437],[-64.9084,-18.5043],[-64.8373,-18.4843],[-64.7988,-18.494],[-64.7844,-18.526],[-64.7075,-18.5389],[-64.6967,-18.5297],[-64.6707,-18.5665],[-64.6524,-18.5724],[-64.6436,-18.5869],[-64.6475,-18.6019],[-64.6359,-18.605],[-64.6216,-18.6329],[-64.5741,-18.6537],[-64.5579,-18.6745],[-64.4697,-18.6685],[-64.4431,-18.6519],[-64.4289,-18.6292],[-64.3708,-18.6231],[-64.3622,-18.6151],[-64.3456,-18.6628],[-64.3292,-18.6655],[-64.3181,-18.6434],[-64.3119,-18.6467],[-64.3159,-18.6291],[-64.2947,-18.6114],[-64.2925,-18.617],[-64.2814,-18.5963],[-64.2989,-18.5585],[-64.2853,-18.5543],[-64.2902,-18.5356],[-64.3003,-18.5339],[-64.3035,-18.5007],[-64.3249,-18.4981],[-64.3388,-18.4757],[-64.4026,-18.451],[-64.4283,-18.4179],[-64.4323,-18.3734],[-64.4481,-18.372],[-64.4347,-18.3362],[-64.4638,-18.3236],[-64.4708,-18.3115],[-64.465,-18.305],[-64.4844,-18.2952],[-64.4824,-18.2616],[-64.4993,-18.2347],[-64.497,-18.2139],[-64.5147,-18.198],[-64.5091,-18.1894],[-64.5229,-18.1814],[-64.5282,-18.1567],[-64.5424,-18.1385],[-64.6027,-18.1096],[-64.6167,-18.0937],[-64.6617,-18.1043],[-64.6919,-18.0988],[-64.7156,-18.0722],[-64.7175,-18.0454],[-64.7403,-18.0368],[-64.7663,-17.986],[-64.7851,-17.9789],[-64.8106,-17.9447],[-64.7866,-17.9333],[-64.8064,-17.893],[-64.7915,-17.8446],[-64.7737,-17.8195],[-64.7565,-17.7509],[-64.746,-17.7359],[-64.7132,-17.7316],[-64.699,-17.7154],[-64.6396,-17.7082],[-64.641,-17.6764],[-64.6277,-17.6591],[-64.6164,-17.6628],[-64.5926,-17.6191],[-64.5888,-17.601],[-64.6029,-17.559],[-64.5502,-17.5659],[-64.5198,-17.534],[-64.4907,-17.5594],[-64.4323,-17.56],[-64.4276,-17.5235],[-64.412,-17.5191],[-64.4004,-17.4941],[-64.4066,-17.4737],[-64.3995,-17.4502],[-64.3781,-17.4558],[-64.3589,-17.4455],[-64.3493,-17.4256],[-64.3316,-17.4219],[-64.3024,-17.4373],[-64.2812,-17.4254],[-64.2539,-17.4254],[-64.2539,-17.4058],[-64.2418,-17.3977],[-64.2341,-17.3737],[-64.2459,-17.304],[-64.2751,-17.2909],[-64.285,-17.2642],[-64.3102,-17.2585],[-64.3034,-17.278],[-64.3154,-17.2647],[-64.3402,-17.2636],[-64.3387,-17.2461],[-64.3209,-17.2398],[-64.3354,-17.2327],[-64.3323,-17.2013],[-64.3595,-17.1845],[-64.3762,-17.1892],[-64.3846,-17.1749],[-64.3986,-17.1763],[-64.3875,-17.1563],[-64.4104,-17.1571],[-64.3931,-17.1496],[-64.3952,-17.1402],[-64.4102,-17.1513],[-64.4235,-17.141],[-64.4275,-17.1595],[-64.4355,-17.1546],[-64.4353,-17.1298],[-64.4545,-17.142],[-64.4651,-17.1326],[-64.4872,-17.1353],[-64.4769,-17.1183],[-64.4997,-17.0914],[-64.5197,-17.0988],[-64.5496,-17.0869],[-64.5187,-17.0571],[-64.5437,-17.055],[-64.5552,-17.0696],[-64.5789,-17.0591],[-64.5644,-17.0414],[-64.5699,-17.0325],[-64.5925,-17.054],[-64.6116,-17.0408],[-64.5884,-17.0415],[-64.5882,-17.0349],[-64.6052,-17.0259],[-64.6174,-17.0352],[-64.6198,-17.0146],[-64.6288,-17.0243],[-64.6242,-17.0334],[-64.6378,-17.0383],[-64.6407,-17.0218],[-64.6287,-17.0052],[-64.6611,-17.002],[-64.6641,-17.0157],[-64.6847,-17.0211],[-64.6912,-16.9988],[-64.6726,-16.9979],[-64.6798,-16.9864],[-64.6962,-16.9852],[-64.6973,-17.0002],[-64.7082,-17.0004],[-64.7081,-16.9867],[-64.6883,-16.969],[-64.6779,-16.9791],[-64.675,-16.9709],[-64.7141,-16.9419],[-64.7306,-16.9541],[-64.747,-16.9419],[-64.7346,-16.9379],[-64.7368,-16.9234],[-64.7199,-16.9259],[-64.734,-16.914],[-64.7503,-16.916],[-64.7295,-16.9014],[-64.7352,-16.8861],[-64.7503,-16.8976],[-64.7596,-16.8939],[-64.737,-16.8683],[-64.7613,-16.8773],[-64.7701,-16.8699],[-64.7406,-16.8537],[-64.7578,-16.852],[-64.7696,-16.8615],[-64.7751,-16.849],[-64.7606,-16.8379],[-64.7815,-16.8254],[-64.7894,-16.8329],[-64.7785,-16.8458],[-64.7903,-16.8429],[-64.7923,-16.8225],[-64.78,-16.8018],[-64.8016,-16.7973],[-64.8161,-16.7741],[-64.8101,-16.7672],[-64.7977,-16.7742],[-64.7957,-16.765],[-64.8067,-16.7622],[-64.8351,-16.7735],[-64.8295,-16.7596],[-64.8421,-16.7365],[-64.8326,-16.7253],[-64.8034,-16.7355],[-64.7943,-16.7492],[-64.7834,-16.7443],[-64.7835,-16.7202],[-64.8068,-16.7115],[-64.8099,-16.6999],[-64.7889,-16.6875],[-64.7794,-16.6559],[-64.7668,-16.6614],[-64.7716,-16.6857],[-64.7579,-16.6777],[-64.7574,-16.6527],[-64.7903,-16.6326],[-64.7814,-16.6137],[-64.7479,-16.5876],[-64.7503,-16.556],[-64.7611,-16.551],[-64.7404,-16.5358],[-64.7493,-16.5103],[-64.7238,-16.5073],[-64.7258,-16.5308],[-64.7089,-16.535],[-64.7017,-16.5122],[-64.7119,-16.497],[-64.6879,-16.4845],[-64.711,-16.4854],[-64.7099,-16.4729],[-64.6738,-16.4756],[-64.6873,-16.4439],[-64.6783,-16.4287],[-64.6986,-16.4173],[-64.6803,-16.4089],[-64.6558,-16.3773],[-64.6639,-16.3709],[-64.6946,-16.377],[-64.6863,-16.3605],[-64.7061,-16.355],[-64.7073,-16.3443],[-64.6845,-16.3493],[-64.6703,-16.3692],[-64.6649,-16.3359],[-64.6443,-16.3192],[-64.6803,-16.3216],[-64.6468,-16.2981],[-64.6675,-16.2863],[-64.6936,-16.2913],[-64.6649,-16.2573],[-64.6667,-16.241],[-64.6772,-16.2369],[-64.67,-16.2076],[-64.7083,-16.1844],[-64.6954,-16.1701],[-64.6903,-16.1854],[-64.6815,-16.1814],[-64.6725,-16.1406],[-64.6845,-16.1267],[-64.6645,-16.0954],[-64.6778,-16.0985],[-64.684,-16.1153],[-64.6964,-16.1121],[-64.6883,-16.0949],[-64.704,-16.0813],[-64.7034,-16.0636],[-64.7159,-16.0586],[-64.7028,-16.0283],[-64.7244,-16.0178],[-64.7194,-16.034],[-64.7325,-16.0348],[-64.7218,-16.0091],[-64.7018,-16.012],[-64.7096,-16.0007],[-64.7306,-16.0062],[-64.7345,-15.9999],[-64.7093,-15.9703],[-64.7186,-15.9626],[-64.7275,-15.9815],[-64.7387,-15.9821],[-64.7261,-15.9519],[-64.7562,-15.9511],[-64.7506,-15.9256],[-64.7293,-15.9164],[-64.7469,-15.8948],[-64.7232,-15.8983],[-64.7308,-15.8783],[-64.7515,-15.8654],[-64.7299,-15.802],[-64.9584,-15.801],[-65.0027,-15.8215],[-65.0412,-15.858],[-65.0807,-15.9309],[-65.1162,-16.188],[-65.1397,-16.2366],[-65.2399,-16.3687],[-65.5948,-16.4602],[-65.8617,-16.4916],[-65.9713,-16.4669],[-66.1697,-16.3628],[-66.2311,-16.2857],[-66.3393,-16.1172],[-66.3674,-16.1041],[-66.5063,-15.9852],[-66.6155,-15.9517],[-66.6353,-15.9336],[-66.6388,-15.9159],[-66.6587,-15.9055],[-66.6762,-15.911],[-66.7663,-15.8464],[-66.8075,-15.8281],[-66.7954,-15.7851],[-66.8093,-15.7799],[-66.8368,-15.7967],[-66.8596,-15.783],[-66.9065,-15.8427],[-66.9014,-15.868],[-66.8821,-15.8807],[-66.8903,-15.8966],[-66.8688,-15.9354],[-66.9048,-15.9625],[-66.9097,-15.9902],[-66.9217,-16.0013],[-66.9092,-16.0457],[-66.9205,-16.0914],[-66.8896,-16.1169],[-66.8438,-16.1964],[-66.8535,-16.2452],[-66.8192,-16.2713],[-66.8021,-16.2977],[-66.7962,-16.3875],[-66.7837,-16.4212],[-66.7894,-16.485],[-66.7705,-16.5053],[-66.7779,-16.5219],[-66.7325,-16.5904],[-66.7466,-16.6317],[-66.7432,-16.6587],[-66.7586,-16.6924],[-66.7441,-16.7194],[-66.7406,-16.7545],[-66.7629,-16.7821],[-66.7819,-16.7898],[-66.7866,-16.807],[-66.8322,-16.8389],[-66.9245,-16.8356],[-66.9744,-16.8926],[-66.9714,-16.9246],[-66.9919,-16.9334],[-67.0061,-16.954],[-67.0029,-16.9874],[-66.9788,-17.0482],[-66.9348,-17.1024],[-66.8924,-17.1367],[-66.8841,-17.16],[-66.8899,-17.2105],[-66.8773,-17.2346],[-66.889,-17.2806],[-66.878,-17.298],[-66.8425,-17.3189],[-66.8465,-17.3363],[-66.8599,-17.3416],[-66.8455,-17.3531],[-66.8463,-17.3842],[-66.8647,-17.3883],[-66.8768,-17.4152],[-66.8645,-17.4341],[-66.8361,-17.4509],[-66.8345,-17.4772],[-66.8163,-17.5124],[-66.8386,-17.5324],[-66.878,-17.5412],[-66.8731,-17.5793],[-66.8839,-17.602],[-66.8723,-17.6248],[-66.8881,-17.64],[-66.8919,-17.6661],[-66.8698,-17.7015],[-66.8223,-17.7362],[-66.7913,-17.7822],[-66.7721,-17.7818],[-66.7366,-17.8043],[-66.7172,-17.8528],[-66.7151,-17.9],[-66.7282,-17.9248],[-66.8418,-18.0514],[-66.8157,-18.1113],[-66.7852,-18.1357]]]]}},{"type":"Feature","properties":{"name":"Oruro","cod_dep":"04"},"geometry":{"type":"MultiPolygon","coordinates":[[[[-69.0751,-18.0414],[-69.057,-18.0611],[-69.0819,-18.097],[-69.1006,-18.1038],[-69.1037,-18.1191],[-69.1279,-18.1276],[-69.1463,-18.1622],[-69.1026,-18.21],[-69.0638,-18.2313],[-69.0742,-18.2866],[-69.0376,-18.3226],[-69.0517,-18.3369],[-69.048,-18.3662],[-69.0563,-18.376],[-69.0455,-18.3888],[-69.0463,-18.4278],[-69.0028,-18.4822],[-69.017,-18.5725],[-69.0073,-18.6012],[-69.027,-18.6007],[-69.0367,-18.6232],[-69.0101,-18.6371],[-68.9841,-18.6783],[-68.9776,-18.739],[-68.9259,-18.8424],[-68.9155,-18.8912],[-68.9502,-18.9368],[-68.9201,-18.9767],[-68.8895,-19.0432],[-68.871,-19.0604],[-68.8061,-19.0832],[-68.6284,-19.2509],[-68.6198,-19.2761],[-68.5857,-19.2851],[-68.4274,-19.4224],[-68.4405,-19.44],[-68.426,-19.4355],[-68.4113,-19.4403],[-68.4048,-19.4694],[-68.3521,-19.52],[-68.3315,-19.5157],[-68.2911,-19.5266],[-68.294,-19.5462],[-68.2354,-19.568],[-68.2206,-19.5837],[-68.2071,-19.5826],[-68.166,-19.6142],[-68.1154,-19.59],[-68.0949,-19.5905],[-68.0881,-19.5765],[-68.0318,-19.6223],[-67.9595,-19.7294],[-67.8764,-19.7618],[-67.8217,-19.8095],[-67.7586,-19.8059],[-67.7324,-19.831],[-67.7146,-19.812],[-67.5802,-19.8749],[-67.5713,-19.8867],[-67.5605,-19.8669],[-67.5274,-19.8479],[-67.5299,-19.8282],[-67.547,-19.8084],[-67.5345,-19.7899],[-67.557,-19.7844],[-67.5665,-19.7652],[-67.5713,-19.7269],[-67.5623,-19.7151],[-67.5217,-19.7166],[-67.4696,-19.7031],[-67.3806,-19.713],[-67.3449,-19.7236],[-67.291,-19.7652],[-67.2748,-19.7504],[-67.2566,-19.6993],[-67.2274,-19.6902],[-67.2066,-19.6709],[-67.2126,-19.6426],[-67.2035,-19.6146],[-67.2317,-19.5842],[-67.2309,-19.5672],[-67.2183,-19.5593],[-67.236,-19.508],[-67.2259,-19.4839],[-67.2562,-19.4638],[-67.2678,-19.4286],[-67.1923,-19.4496],[-67.1727,-19.4435],[-67.142,-19.4199],[-67.1097,-19.412],[-67.0808,-19.3561],[-67.0672,-19.3726],[-67.055,-19.3697],[-67.0416,-19.3808],[-67.026,-19.3698],[-66.9992,-19.3805],[-66.9565,-19.3678],[-66.8818,-19.4137],[-66.8566,-19.4475],[-66.8256,-19.4551],[-66.7881,-19.4334],[-66.7521,-19.4273],[-66.7505,-19.4368],[-66.7349,-19.4292],[-66.6997,-19.4485],[-66.6616,-19.4301],[-66.5906,-19.4261],[-66.5756,-19.4013],[-66.5021,-19.3599],[-66.4291,-19.4062],[-66.3903,-19.4576],[-66.3577,-19.4673],[-66.271,-19.2995],[-66.2344,-19.3019],[-66.2213,-19.2761],[-66.2242,-19.2569],[-66.1678,-19.243],[-66.1256,-19.2613],[-66.1291,-19.2188],[-66.1007,-19.1745],[-66.1127,-19.15],[-66.0895,-19.1017],[-66.1435,-19.0421],[-66.1782,-19.0288],[-66.1808,-18.9971],[-66.197,-18.9701],[-66.2601,-18.9849],[-66.2689,-19.0089],[-66.2817,-19.0148],[-66.3018,-18.9906],[-66.3018,-18.9333],[-66.3132,-18.9218],[-66.3571,-18.7806],[-66.3924,-18.7171],[-66.4414,-18.7022],[-66.4604,-18.7071],[-66.4749,-18.7315],[-66.4774,-18.7613],[-66.5025,-18.7881],[-66.5321,-18.7737],[-66.537,-18.7211],[-66.5761,-18.7144],[-66.5886,-18.6958],[-66.6019,-18.6942],[-66.5945,-18.6826],[-66.612,-18.66],[-66.607,-18.6507],[-66.632,-18.6491],[-66.6442,-18.6303],[-66.6395,-18.5988],[-66.6583,-18.5647],[-66.6661,-18.5211],[-66.6815,-18.5012],[-66.6986,-18.4032],[-66.7293,-18.3404],[-66.6786,-18.3164],[-66.6614,-18.2956],[-66.5577,-18.2706],[-66.5567,-18.2501],[-66.5963,-18.2362],[-66.6492,-18.2418],[-66.689,-18.2328],[-66.7218,-18.2451],[-66.7454,-18.2411],[-66.7638,-18.2164],[-66.7598,-18.1699],[-66.7852,-18.1357],[-66.8157,-18.1113],[-66.8418,-18.0514],[-66.7282,-17.9248],[-66.7151,-17.9],[-66.7172,-17.8528],[-66.7366,-17.8043],[-66.7721,-17.7818],[-66.7913,-17.7822],[-66.8223,-17.7362],[-66.8698,-17.7015],[-66.8919,-17.6661],[-66.8881,-17.64],[-66.8723,-17.6248],[-66.8839,-17.602],[-66.8987,-17.5909],[-66.9346,-17.6176],[-67.0104,-17.6294],[-67.051,-17.5877],[-67.0462,-17.5683],[-67.0186,-17.5414],[-67.0316,-17.5049],[-67.0576,-17.488],[-67.0673,-17.4701],[-67.1245,-17.4653],[-67.181,-17.4263],[-67.1903,-17.4167],[-67.1876,-17.3783],[-67.1995,-17.3659],[-67.194,-17.3486],[-67.2033,-17.3363],[-67.2285,-17.3367],[-67.2474,-17.3246],[-67.2776,-17.3448],[-67.2852,-17.3637],[-67.2997,-17.3432],[-67.3277,-17.4209],[-67.3576,-17.4264],[-67.3745,-17.4618],[-67.3944,-17.4764],[-67.3951,-17.5126],[-67.3801,-17.5269],[-67.391,-17.5409],[-67.3867,-17.5681],[-67.407,-17.5733],[-67.4315,-17.5565],[-67.4686,-17.5057],[-67.4837,-17.5217],[-67.5034,-17.5173],[-67.5213,-17.5539],[-67.5488,-17.5801],[-67.5272,-17.5995],[-67.5307,-17.6104],[-67.5087,-17.6426],[-67.5119,-17.6622],[-67.5544,-17.7022],[-67.5859,-17.7121],[-67.5858,-17.7682],[-67.6445,-17.758],[-67.677,-17.7639],[-67.6746,-17.7289],[-67.71,-17.7178],[-67.733,-17.7757],[-67.6962,-17.8031],[-67.7053,-17.847],[-67.7246,-17.8585],[-67.733,-17.8913],[-67.7927,-17.8759],[-67.9062,-17.7928],[-68.0172,-17.7322],[-68.0854,-17.7152],[-68.1429,-17.671],[-68.189,-17.6598],[-68.2296,-17.6394],[-68.24,-17.6239],[-68.2793,-17.6255],[-68.308,-17.5971],[-68.3332,-17.6196],[-68.3679,-17.6063],[-68.3881,-17.6254],[-68.4258,-17.6317],[-68.4568,-17.6671],[-68.551,-17.7177],[-68.5365,-17.8097],[-68.5608,-17.8196],[-68.6026,-17.798],[-68.6534,-17.8672],[-68.7015,-17.8878],[-68.7321,-17.8866],[-68.768,-17.9233],[-68.8104,-17.9211],[-68.8639,-17.9434],[-68.9104,-17.9496],[-69.0751,-18.0414]]]]}},{"type":"Feature","properties":{"name":"Potosi","cod_dep":"05"},"geometry":{"type":"MultiPolygon","coordinates":[[[[-68.426,-19.4355],[-68.4412,-19.4402],[-68.602,-19.645],[-68.5976,-19.6564],[-68.6189,-19.6761],[-68.625,-19.7021],[-68.6811,-19.718],[-68.6866,-19.7409],[-68.6956,-19.7393],[-68.6923,-19.7525],[-68.6659,-19.7521],[-68.6567,-19.7684],[-68.6254,-19.7854],[-68.5994,-19.828],[-68.5282,-19.8456],[-68.5423,-19.8899],[-68.5217,-19.9243],[-68.566,-20.05],[-68.6405,-20.0488],[-68.693,-20.0683],[-68.7621,-20.0782],[-68.7737,-20.13],[-68.7624,-20.1342],[-68.7488,-20.1234],[-68.7313,-20.1355],[-68.7045,-20.1334],[-68.7035,-20.1596],[-68.6918,-20.177],[-68.7104,-20.1874],[-68.7127,-20.2013],[-68.6988,-20.2131],[-68.7148,-20.2268],[-68.7127,-20.2463],[-68.6971,-20.2575],[-68.6922,-20.2954],[-68.6803,-20.2951],[-68.6612,-20.3184],[-68.6609,-20.3391],[-68.6738,-20.3561],[-68.7309,-20.3729],[-68.7415,-20.3685],[-68.7387,-20.4568],[-68.6664,-20.5163],[-68.5931,-20.5476],[-68.5718,-20.5755],[-68.5347,-20.5694],[-68.5145,-20.605],[-68.4833,-20.6068],[-68.4385,-20.6401],[-68.4768,-20.6656],[-68.5015,-20.669],[-68.526,-20.6964],[-68.5322,-20.7229],[-68.5533,-20.7288],[-68.5412,-20.8097],[-68.5471,-20.8312],[-68.5558,-20.8332],[-68.5475,-20.8424],[-68.5554,-20.8664],[-68.5407,-20.8917],[-68.543,-20.9047],[-68.4931,-20.9457],[-68.4289,-20.9456],[-68.4124,-20.9345],[-68.2949,-21.0979],[-68.1793,-21.3018],[-68.1805,-21.6041],[-68.1181,-21.678],[-68.0872,-21.746],[-68.0605,-21.7705],[-68.0714,-21.9823],[-68.0145,-22.0239],[-68.0074,-22.0395],[-67.9656,-22.0536],[-67.9628,-22.0815],[-67.9394,-22.1075],[-67.9577,-22.1664],[-67.9321,-22.2031],[-67.923,-22.2663],[-67.9154,-22.2719],[-67.9372,-22.2731],[-67.9322,-22.3052],[-67.9414,-22.3365],[-67.9307,-22.3431],[-67.9401,-22.3595],[-67.9322,-22.3742],[-67.9404,-22.3803],[-67.9025,-22.4023],[-67.9044,-22.4193],[-67.8835,-22.4429],[-67.892,-22.4471],[-67.8865,-22.5079],[-67.8709,-22.5306],[-67.8388,-22.5366],[-67.8524,-22.5568],[-67.8318,-22.5812],[-67.8626,-22.5995],[-67.8569,-22.621],[-67.8837,-22.6285],[-67.875,-22.6605],[-67.8891,-22.666],[-67.8681,-22.6782],[-67.8902,-22.719],[-67.8677,-22.744],[-67.8771,-22.7545],[-67.8822,-22.8339],[-67.8422,-22.8479],[-67.828,-22.8443],[-67.8298,-22.8555],[-67.7992,-22.8811],[-67.5684,-22.898],[-67.1806,-22.8141],[-67.1277,-22.7221],[-67.0141,-22.6548],[-67.0273,-22.5409],[-66.973,-22.5406],[-66.9286,-22.4923],[-66.7825,-22.4381],[-66.7843,-22.4017],[-66.7616,-22.3459],[-66.7393,-22.2385],[-66.6863,-22.2096],[-66.6382,-22.2255],[-66.6232,-22.1973],[-66.3477,-22.1284],[-66.348,-22.1202],[-66.3321,-22.1189],[-66.3255,-22.089],[-66.3077,-22.0947],[-66.2877,-22.085],[-66.2911,-22.032],[-66.2782,-22.0214],[-66.2832,-21.9829],[-66.2358,-21.8512],[-66.2429,-21.7946],[-66.2212,-21.7817],[-66.0763,-21.8349],[-66.0433,-21.872],[-66.0482,-21.919],[-65.9248,-21.9336],[-65.8049,-22.0752],[-65.7482,-22.1093],[-65.7152,-22.0973],[-65.6774,-22.1115],[-65.6066,-22.0945],[-65.5861,-22.0977],[-65.5745,-22.0762],[-65.4849,-22.0956],[-65.474,-22.0888],[-65.1867,-22.0855],[-65.1851,-22.0131],[-65.2007,-22.0117],[-65.26,-21.9718],[-65.305,-21.9775],[-65.3349,-21.9654],[-65.3927,-21.9291],[-65.4172,-21.897],[-65.417,-21.883],[-65.3968,-21.8793],[-65.3896,-21.8417],[-65.356,-21.8389],[-65.3496,-21.829],[-65.3202,-21.7671],[-65.3147,-21.7327],[-65.2927,-21.7317],[-65.3069,-21.7077],[-65.3039,-21.69],[-65.2769,-21.6639],[-65.2719,-21.6531],[-65.2798,-21.6461],[-65.264,-21.6376],[-65.2641,-21.6095],[-65.2454,-21.5704],[-65.2498,-21.4824],[-65.2848,-21.4939],[-65.3116,-21.4858],[-65.3201,-21.5173],[-65.3534,-21.5008],[-65.3877,-21.5163],[-65.402,-21.5002],[-65.3985,-21.4549],[-65.4077,-21.4319],[-65.437,-21.4266],[-65.4302,-21.3151],[-65.4416,-21.181],[-65.4025,-21.1602],[-65.4206,-21.0613],[-65.3991,-21.0073],[-65.4203,-20.9686],[-65.4019,-20.9353],[-65.3947,-20.8931],[-65.3767,-20.8698],[-65.3538,-20.8732],[-65.3464,-20.8635],[-65.3492,-20.8214],[-65.376,-20.7518],[-65.3569,-20.7258],[-65.3645,-20.6771],[-65.3472,-20.6223],[-65.3546,-20.6022],[-65.3808,-20.5883],[-65.3877,-20.5575],[-65.3501,-20.5484],[-65.3276,-20.5119],[-65.2686,-20.5047],[-65.2712,-20.457],[-65.2563,-20.4426],[-65.2615,-20.4236],[-65.2434,-20.4146],[-65.2515,-20.3801],[-65.2291,-20.3526],[-65.2312,-20.3323],[-65.2218,-20.3212],[-65.2452,-20.2762],[-65.2824,-20.2329],[-65.3156,-20.2251],[-65.315,-20.1926],[-65.3016,-20.1777],[-65.2713,-20.1514],[-65.2572,-20.1586],[-65.2326,-20.1405],[-65.2389,-20.1163],[-65.2685,-20.0925],[-65.283,-20.0522],[-65.2936,-20.0483],[-65.305,-20.0094],[-65.2703,-20.0038],[-65.2725,-19.9965],[-65.2223,-19.9359],[-65.2033,-19.938],[-65.1522,-20.0124],[-65.1046,-20.0165],[-65.0906,-20.0093],[-65.0596,-19.9501],[-65.0831,-19.9319],[-65.0527,-19.8203],[-65.0567,-19.7936],[-65.0298,-19.7949],[-64.995,-19.8323],[-64.9913,-19.8529],[-64.9416,-19.8765],[-64.9279,-19.8438],[-64.9143,-19.8421],[-64.9192,-19.8609],[-64.8947,-19.9144],[-64.893,-19.9569],[-64.8718,-19.981],[-64.859,-19.9745],[-64.8508,-19.9811],[-64.8292,-19.9331],[-64.8107,-19.9252],[-64.795,-19.9028],[-64.7759,-19.8401],[-64.7393,-19.7899],[-64.7146,-19.7797],[-64.725,-19.7732],[-64.7418,-19.707],[-64.7879,-19.653],[-64.7869,-19.6344],[-64.8106,-19.6255],[-64.842,-19.5906],[-64.8185,-19.5013],[-64.8232,-19.4835],[-64.8391,-19.4706],[-64.8526,-19.4102],[-64.8793,-19.3973],[-64.8945,-19.4004],[-64.8933,-19.3808],[-64.9141,-19.3544],[-64.9293,-19.3627],[-64.9704,-19.3468],[-65.0078,-19.3529],[-65.0561,-19.3859],[-65.0898,-19.3669],[-65.1417,-19.378],[-65.175,-19.3557],[-65.2152,-19.3439],[-65.232,-19.32],[-65.3092,-19.3066],[-65.3311,-19.2709],[-65.3691,-19.2566],[-65.393,-19.2044],[-65.3897,-19.1767],[-65.4062,-19.1439],[-65.4699,-19.1226],[-65.4959,-19.0896],[-65.5177,-19.0965],[-65.5409,-19.0854],[-65.5586,-19.0625],[-65.5675,-19.0241],[-65.5874,-18.9978],[-65.5324,-18.9765],[-65.5192,-18.9514],[-65.4809,-18.9259],[-65.4587,-18.9295],[-65.441,-18.9185],[-65.4138,-18.9454],[-65.4039,-18.9341],[-65.3976,-18.9183],[-65.4208,-18.8794],[-65.4173,-18.8625],[-65.4288,-18.8369],[-65.4432,-18.8306],[-65.4175,-18.7796],[-65.4059,-18.7749],[-65.3871,-18.7962],[-65.371,-18.7788],[-65.3664,-18.7902],[-65.3569,-18.7858],[-65.3641,-18.7747],[-65.4067,-18.7733],[-65.4292,-18.748],[-65.4006,-18.7019],[-65.4146,-18.6896],[-65.4191,-18.6631],[-65.4108,-18.6517],[-65.3934,-18.6562],[-65.3834,-18.6382],[-65.4227,-18.6049],[-65.4377,-18.6138],[-65.486,-18.5907],[-65.5013,-18.5639],[-65.496,-18.5358],[-65.5143,-18.5475],[-65.5256,-18.5287],[-65.5757,-18.5018],[-65.6239,-18.5011],[-65.6252,-18.4605],[-65.6724,-18.4337],[-65.6842,-18.4167],[-65.6938,-18.352],[-65.674,-18.3473],[-65.6582,-18.3661],[-65.5936,-18.3741],[-65.5455,-18.4044],[-65.5347,-18.3921],[-65.5063,-18.3868],[-65.4893,-18.3999],[-65.463,-18.3996],[-65.4555,-18.41],[-65.4419,-18.4036],[-65.3666,-18.4354],[-65.3518,-18.4333],[-65.3456,-18.4179],[-65.4044,-18.3675],[-65.44,-18.3643],[-65.461,-18.3441],[-65.4728,-18.3045],[-65.4878,-18.2919],[-65.5029,-18.2563],[-65.5649,-18.2339],[-65.5967,-18.2023],[-65.6037,-18.1781],[-65.638,-18.1377],[-65.6505,-18.1391],[-65.6816,-18.1152],[-65.6906,-18.0969],[-65.7461,-18.0491],[-65.7809,-18.0312],[-65.7892,-18.014],[-65.8083,-18.0088],[-65.848,-17.9732],[-65.8671,-17.9709],[-65.897,-17.9873],[-65.9321,-17.9913],[-65.944,-17.9553],[-65.9535,-17.9469],[-65.9681,-17.9515],[-65.9896,-17.932],[-66.0426,-17.8418],[-66.0969,-17.8072],[-66.1162,-17.8368],[-66.1164,-17.8583],[-66.1522,-17.8907],[-66.1648,-17.9235],[-66.1799,-17.9334],[-66.197,-17.9262],[-66.2193,-17.9376],[-66.226,-17.9526],[-66.2472,-17.9532],[-66.2517,-17.9343],[-66.2809,-17.966],[-66.3092,-17.9618],[-66.3202,-17.9494],[-66.4314,-17.9733],[-66.5335,-18.0584],[-66.5232,-18.0892],[-66.5646,-18.076],[-66.6011,-18.0823],[-66.6389,-18.1193],[-66.6765,-18.1093],[-66.6903,-18.1202],[-66.7247,-18.1159],[-66.7575,-18.1349],[-66.7852,-18.1357],[-66.7598,-18.1699],[-66.7638,-18.2164],[-66.7454,-18.2411],[-66.7218,-18.2451],[-66.689,-18.2328],[-66.6492,-18.2418],[-66.5963,-18.2362],[-66.5567,-18.2501],[-66.5577,-18.2706],[-66.6614,-18.2956],[-66.6786,-18.3164],[-66.7293,-18.3404],[-66.6986,-18.4032],[-66.6815,-18.5012],[-66.6661,-18.5211],[-66.6583,-18.5647],[-66.6395,-18.5988],[-66.6442,-18.6303],[-66.632,-18.6491],[-66.607,-18.6507],[-66.612,-18.66],[-66.5945,-18.6826],[-66.6019,-18.6942],[-66.5886,-18.6958],[-66.5761,-18.7144],[-66.537,-18.7211],[-66.5321,-18.7737],[-66.5025,-18.7881],[-66.4774,-18.7613],[-66.4749,-18.7315],[-66.4604,-18.7071],[-66.4414,-18.7022],[-66.3924,-18.7171],[-66.3571,-18.7806],[-66.3132,-18.9218],[-66.3018,-18.9333],[-66.3018,-18.9906],[-66.2817,-19.0148],[-66.2689,-19.0089],[-66.2601,-18.9849],[-66.197,-18.9701],[-66.1808,-18.9971],[-66.1782,-19.0288],[-66.1435,-19.0421],[-66.0895,-19.1017],[-66.1127,-19.15],[-66.1007,-19.1745],[-66.1291,-19.2188],[-66.1256,-19.2613],[-66.1678,-19.243],[-66.2242,-19.2569],[-66.2213,-19.2761],[-66.2344,-19.3019],[-66.271,-19.2995],[-66.3577,-19.4673],[-66.3903,-19.4576],[-66.4291,-19.4062],[-66.5021,-19.3599],[-66.5756,-19.4013],[-66.5906,-19.4261],[-66.6616,-19.4301],[-66.6997,-19.4485],[-66.7349,-19.4292],[-66.7505,-19.4368],[-66.7521,-19.4273],[-66.7881,-19.4334],[-66.8256,-19.4551],[-66.8566,-19.4475],[-66.8818,-19.4137],[-66.9565,-19.3678],[-66.9992,-19.3805],[-67.026,-19.3698],[-67.0416,-19.3808],[-67.055,-19.3697],[-67.0672,-19.3726],[-67.0808,-19.3561],[-67.1097,-19.412],[-67.142,-19.4199],[-67.1727,-19.4435],[-67.1923,-19.4496],[-67.2678,-19.4286],[-67.2562,-19.4638],[-67.2259,-19.4839],[-67.236,-19.508],[-67.2183,-19.5593],[-67.2309,-19.5672],[-67.2317,-19.5842],[-67.2035,-19.6146],[-67.2126,-19.6426],[-67.2066,-19.6709],[-67.2274,-19.6902],[-67.2566,-19.6993],[-67.2748,-19.7504],[-67.291,-19.7652],[-67.3449,-19.7236],[-67.3806,-19.713],[-67.4696,-19.7031],[-67.5217,-19.7166],[-67.5623,-19.7151],[-67.5713,-19.7269],[-67.5665,-19.7652],[-67.557,-19.7844],[-67.5345,-19.7899],[-67.547,-19.8084],[-67.5299,-19.8282],[-67.5274,-19.8479],[-67.5605,-19.8669],[-67.5713,-19.8867],[-67.5802,-19.8749],[-67.7146,-19.812],[-67.7324,-19.831],[-67.7586,-19.8059],[-67.8217,-19.8095],[-67.8764,-19.7618],[-67.9595,-19.7294],[-68.0318,-19.6223],[-68.0881,-19.5765],[-68.0949,-19.5905],[-68.1154,-19.59],[-68.166,-19.6142],[-68.2071,-19.5826],[-68.2206,-19.5837],[-68.2354,-19.568],[-68.294,-19.5462],[-68.2911,-19.5266],[-68.3315,-19.5157],[-68.3521,-19.52],[-68.4048,-19.4694],[-68.4113,-19.4403],[-68.426,-19.4355]]]]}},{"type":"Feature","properties":{"name":"Tarija","cod_dep":"06"},"geometry":{"type":"MultiPolygon","coordinates":[[[[-65.1867,-22.0855],[-64.9933,-22.0825],[-64.9808,-22.0977],[-64.9238,-22.1211],[-64.886,-22.1292],[-64.8747,-22.1172],[-64.7364,-22.1932],[-64.6845,-22.1867],[-64.66,-22.1962],[-64.6511,-22.1896],[-64.6167,-22.2065],[-64.5983,-22.2413],[-64.5376,-22.2843],[-64.5469,-22.3161],[-64.5642,-22.3234],[-64.5658,-22.372],[-64.5128,-22.4125],[-64.5238,-22.4423],[-64.4904,-22.4384],[-64.4894,-22.4574],[-64.4745,-22.4683],[-64.482,-22.481],[-64.447,-22.5043],[-64.4517,-22.5179],[-64.43,-22.5213],[-64.4126,-22.5377],[-64.4089,-22.5605],[-64.4299,-22.5811],[-64.4332,-22.6325],[-64.4262,-22.6296],[-64.4251,-22.6373],[-64.4405,-22.6405],[-64.4142,-22.6561],[-64.4146,-22.6796],[-64.3947,-22.6857],[-64.4028,-22.719],[-64.3625,-22.7237],[-64.3447,-22.7388],[-64.3371,-22.7739],[-64.3422,-22.8066],[-64.3301,-22.8122],[-64.3267,-22.8377],[-64.3281,-22.8617],[-64.341,-22.861],[-64.3344,-22.874],[-64.3148,-22.8671],[-64.3116,-22.882],[-64.3092,-22.8635],[-64.2976,-22.8618],[-64.3046,-22.8377],[-64.2841,-22.8294],[-64.2876,-22.7996],[-64.2653,-22.7666],[-64.2834,-22.7524],[-64.264,-22.7408],[-64.2718,-22.7098],[-64.261,-22.6752],[-64.2422,-22.6651],[-64.2646,-22.6502],[-64.2573,-22.6286],[-64.2399,-22.6254],[-64.2417,-22.5578],[-64.2281,-22.5543],[-64.225,-22.5412],[-64.217,-22.5436],[-64.1997,-22.4913],[-64.1876,-22.4907],[-64.1753,-22.4668],[-64.163,-22.4689],[-64.1517,-22.4389],[-64.1387,-22.4306],[-64.1448,-22.4172],[-64.1382,-22.4071],[-64.1155,-22.4045],[-64.1208,-22.3844],[-64.1091,-22.3796],[-64.1171,-22.3644],[-64.0991,-22.3449],[-64.0954,-22.3094],[-64.0826,-22.3004],[-64.0624,-22.2384],[-64.0545,-22.2471],[-64.0335,-22.2396],[-64.0391,-22.2231],[-64.0267,-22.2084],[-64.033,-22.1968],[-64.018,-22.1878],[-64.0222,-22.1722],[-64.0008,-22.158],[-63.9902,-22.1179],[-63.9992,-22.1062],[-63.986,-22.1091],[-63.9907,-22.1033],[-63.9763,-22.0903],[-63.978,-22.0804],[-63.9665,-22.0932],[-63.9585,-22.0862],[-63.9533,-22.0367],[-63.9414,-22.0295],[-63.9431,-22.0125],[-63.9315,-21.9994],[-63.7089,-21.9994],[-63.7024,-22.0154],[-63.6882,-22.0132],[-63.6841,-22.0526],[-63.6652,-21.9995],[-62.8112,-21.9987],[-62.8143,-22.0422],[-62.7969,-22.0668],[-62.8139,-22.105],[-62.7896,-22.1639],[-62.7788,-22.168],[-62.7721,-22.1526],[-62.7623,-22.1539],[-62.7402,-22.1689],[-62.7206,-22.202],[-62.6902,-22.2087],[-62.6602,-22.2507],[-62.6515,-22.2481],[-62.6399,-22.2364],[-62.2609,-21.0586],[-62.2616,-21.0037],[-63.9989,-21.007],[-64.0098,-20.9979],[-64.0097,-20.9469],[-64.0232,-20.9629],[-64.0598,-20.9562],[-64.0719,-20.9272],[-64.1124,-20.9136],[-64.1248,-20.9272],[-64.146,-20.9228],[-64.1597,-20.9051],[-64.1603,-20.8878],[-64.1785,-20.8875],[-64.1827,-20.9412],[-64.1937,-20.9566],[-64.1812,-20.9636],[-64.1921,-20.9709],[-64.1839,-20.9943],[-64.1966,-21.0075],[-64.1794,-21.0294],[-64.2005,-21.0386],[-64.1943,-21.0515],[-64.2017,-21.0636],[-64.1894,-21.0922],[-64.2028,-21.1402],[-64.2311,-21.1532],[-64.292,-21.1338],[-64.3421,-21.1468],[-64.3649,-21.1438],[-64.4167,-21.1004],[-64.4304,-21.1034],[-64.4506,-21.0865],[-64.5255,-21.0989],[-64.547,-21.0825],[-64.6035,-20.9852],[-64.6404,-20.9718],[-64.6673,-20.9442],[-64.7023,-20.9325],[-64.7257,-20.9401],[-64.737,-20.9694],[-64.7608,-20.9813],[-64.7691,-21.0245],[-64.782,-21.0352],[-64.7753,-21.0568],[-64.7889,-21.0637],[-64.799,-21.0967],[-64.8386,-21.0944],[-64.8398,-21.1071],[-64.8553,-21.1073],[-64.8513,-21.091],[-64.8962,-21.0723],[-64.8855,-21.0664],[-64.89,-21.0583],[-64.9199,-21.0582],[-64.9335,-21.0277],[-64.9454,-21.0241],[-64.949,-21.0418],[-64.9574,-21.0245],[-64.9763,-21.0282],[-64.97,-21.0211],[-64.9873,-21.0097],[-64.9926,-21.0206],[-65.0037,-21.0161],[-65.002,-21.0279],[-65.0121,-21.0306],[-65.0169,-21.0213],[-65.0264,-21.0287],[-65.024,-21.0117],[-65.0323,-21.0098],[-65.0287,-21.0179],[-65.0514,-21.0098],[-65.045,-21.0012],[-65.0696,-20.9624],[-65.0837,-20.962],[-65.0884,-20.9777],[-65.1033,-20.9706],[-65.1003,-20.9777],[-65.1109,-20.9832],[-65.1092,-20.9712],[-65.1239,-20.9702],[-65.1306,-20.9597],[-65.1392,-20.9659],[-65.1454,-20.9563],[-65.1524,-20.965],[-65.1646,-20.9467],[-65.1861,-20.9637],[-65.1925,-20.9853],[-65.1893,-21.0146],[-65.2031,-21.0844],[-65.2006,-21.1408],[-65.1906,-21.1416],[-65.1887,-21.162],[-65.211,-21.19],[-65.2016,-21.2173],[-65.2118,-21.2547],[-65.2235,-21.259],[-65.2129,-21.2953],[-65.228,-21.3392],[-65.2306,-21.3998],[-65.2498,-21.4824],[-65.2454,-21.5704],[-65.2641,-21.6095],[-65.264,-21.6376],[-65.2798,-21.6461],[-65.2719,-21.6531],[-65.2769,-21.6639],[-65.3039,-21.69],[-65.3069,-21.7077],[-65.2927,-21.7317],[-65.3147,-21.7327],[-65.3202,-21.7671],[-65.3496,-21.829],[-65.356,-21.8389],[-65.3896,-21.8417],[-65.3968,-21.8793],[-65.417,-21.883],[-65.4172,-21.897],[-65.3927,-21.9291],[-65.3349,-21.9654],[-65.305,-21.9775],[-65.26,-21.9718],[-65.2007,-22.0117],[-65.1851,-22.0131],[-65.1867,-22.0855]]]]}},{"type":"Feature","properties":{"name":"Santa Cruz","cod_dep":"07"},"geometry":{"type":"MultiPolygon","coordinates":[[[[-64.3292,-18.6655],[-64.3119,-18.6679],[-64.309,-18.6996],[-64.3196,-18.7251],[-64.3099,-18.7495],[-64.3179,-18.7578],[-64.2868,-18.7857],[-64.2831,-18.813],[-64.2901,-18.8225],[-64.2247,-18.8677],[-64.2017,-18.9058],[-64.2013,-18.9388],[-64.1869,-18.9587],[-64.167,-18.9688],[-64.1102,-18.9716],[-64.0894,-19.0012],[-64.0812,-18.9965],[-64.0685,-19.0056],[-64.0654,-19.0272],[-64.0535,-19.0378],[-64.0586,-19.0496],[-64.0479,-19.056],[-64.044,-19.0988],[-64.0324,-19.1125],[-64.0431,-19.1173],[-64.0424,-19.127],[-64.0111,-19.1801],[-63.9614,-19.1737],[-63.9203,-19.1839],[-63.9244,-19.1761],[-63.9081,-19.162],[-63.9109,-19.0591],[-63.8991,-19.0457],[-63.9009,-19.0322],[-63.8477,-19.0369],[-63.8394,-19.0496],[-63.8142,-19.0467],[-63.8103,-19.0547],[-63.7954,-19.044],[-63.7808,-19.0491],[-63.78,-19.0366],[-63.7689,-19.0319],[-63.7404,-19.0416],[-63.7301,-19.0312],[-63.7211,-19.0469],[-63.7072,-19.0447],[-63.721,-19.1176],[-63.7374,-19.1281],[-63.7581,-19.1777],[-63.7508,-19.2241],[-63.7302,-19.2549],[-63.7381,-19.2664],[-63.7247,-19.2823],[-63.7272,-19.3143],[-63.7179,-19.3172],[-63.729,-19.3494],[-63.711,-19.3783],[-63.7198,-19.3973],[-63.7181,-19.4378],[-63.6984,-19.526],[-63.7104,-19.5717],[-63.7044,-19.5909],[-63.6923,-19.5944],[-63.7054,-19.6127],[-63.7016,-19.656],[-63.721,-19.7286],[-63.7213,-19.8111],[-63.7087,-19.8614],[-63.7322,-20.025],[-63.7255,-20.1167],[-63.7066,-20.1273],[-63.693,-20.1561],[-63.7082,-20.2018],[-63.6956,-20.2146],[-63.6996,-20.2311],[-63.6648,-20.308],[-63.6765,-20.3502],[-63.6674,-20.4642],[-63.6214,-20.4652],[-63.5867,-20.4451],[-63.5154,-20.4629],[-63.4645,-20.4543],[-63.4383,-20.4371],[-63.4174,-20.441],[-63.3914,-20.3714],[-63.3908,-20.4005],[-63.3571,-20.3947],[-63.3574,-20.462],[-62.1928,-20.462],[-61.9225,-20.0892],[-61.7352,-19.6344],[-60.6043,-19.4567],[-59.9778,-19.2947],[-59.0996,-19.3494],[-58.6678,-19.5729],[-58.236,-19.775],[-58.1641,-19.8271],[-58.2013,-19.8629],[-58.2048,-19.8977],[-58.1964,-19.9273],[-58.2131,-19.9538],[-58.1856,-19.9717],[-58.1758,-20.0285],[-58.1578,-20.0422],[-58.1672,-20.0521],[-58.1632,-20.0765],[-58.1537,-20.0769],[-58.1374,-20.1209],[-58.146,-20.1395],[-58.1684,-20.1543],[-58.1694,-20.1703],[-58.1519,-20.1527],[-58.1239,-20.1494],[-58.0938,-20.1087],[-58.0505,-20.1069],[-58.0332,-20.0648],[-57.9758,-20.0539],[-57.9569,-20.0226],[-57.9377,-20.0193],[-57.9018,-20.042],[-57.8591,-19.9718],[-58.1311,-19.7586],[-57.7832,-19.0351],[-57.7104,-19.0347],[-57.6967,-19.0108],[-57.7025,-18.9886],[-57.7192,-18.9779],[-57.7192,-18.9005],[-57.7671,-18.9005],[-57.5597,-18.2421],[-57.4544,-18.231],[-57.479,-18.2024],[-57.5082,-18.1987],[-57.5797,-18.1201],[-57.6012,-18.0436],[-57.7229,-17.8302],[-57.6845,-17.8308],[-57.6851,-17.8106],[-57.7132,-17.7756],[-57.711,-17.7308],[-57.731,-17.7199],[-57.7831,-17.6409],[-57.772,-17.6154],[-57.7843,-17.6082],[-57.7449,-17.5754],[-57.7396,-17.5601],[-57.8878,-17.4528],[-57.9695,-17.5145],[-57.9733,-17.5062],[-57.9951,-17.5153],[-58.011,-17.4996],[-58.0436,-17.4928],[-58.0527,-17.4602],[-58.0676,-17.452],[-58.0917,-17.4628],[-58.1202,-17.4502],[-58.1222,-17.4152],[-58.1513,-17.4097],[-58.1549,-17.3859],[-58.2009,-17.3891],[-58.1936,-17.3707],[-58.202,-17.3549],[-58.2181,-17.3607],[-58.229,-17.3482],[-58.2557,-17.3534],[-58.2803,-17.3191],[-58.2781,-17.3003],[-58.3,-17.2983],[-58.2926,-17.2879],[-58.304,-17.2702],[-58.3202,-17.2657],[-58.3199,-17.2547],[-58.3693,-17.1999],[-58.3974,-17.1863],[-58.3995,-17.0838],[-58.4323,-17.0589],[-58.4222,-17.0504],[-58.4346,-17.0395],[-58.4173,-17.0375],[-58.4347,-17.0285],[-58.4231,-16.9909],[-58.4449,-16.9855],[-58.4471,-16.9689],[-58.4619,-16.9643],[-58.4575,-16.9401],[-58.4761,-16.9385],[-58.477,-16.9158],[-58.4613,-16.904],[-58.4697,-16.8962],[-58.4611,-16.8622],[-58.4686,-16.8596],[-58.4621,-16.841],[-58.4786,-16.8221],[-58.473,-16.7959],[-58.4618,-16.796],[-58.4588,-16.7869],[-58.4713,-16.7503],[-58.4593,-16.6528],[-58.4344,-16.5932],[-58.4219,-16.5753],[-58.393,-16.5635],[-58.3381,-16.5163],[-58.3339,-16.4844],[-58.3562,-16.4261],[-58.3461,-16.3899],[-58.3076,-16.3719],[-58.3036,-16.3097],[-58.322,-16.266],[-58.3655,-16.2742],[-58.3889,-16.2629],[-58.395,-16.2975],[-58.4311,-16.3225],[-59.475,-16.2797],[-60.1741,-16.2669],[-60.2396,-15.4745],[-60.5757,-15.0976],[-60.245,-15.0974],[-60.2736,-14.621],[-60.3038,-14.583],[-60.3284,-14.577],[-60.3272,-14.5559],[-60.344,-14.5329],[-60.336,-14.5293],[-60.3432,-14.5234],[-60.339,-14.5114],[-60.3494,-14.4946],[-60.3665,-14.4879],[-60.3598,-14.4727],[-60.3791,-14.4641],[-60.3836,-14.4399],[-60.4009,-14.4324],[-60.3946,-14.4222],[-60.4073,-14.4135],[-60.3957,-14.3642],[-60.4101,-14.3696],[-60.4083,-14.3542],[-60.4135,-14.3596],[-60.4204,-14.3474],[-60.4235,-14.3534],[-60.4537,-14.3138],[-60.4665,-14.2653],[-60.4499,-14.2405],[-60.4654,-14.2343],[-60.4729,-14.1918],[-60.4932,-14.1885],[-60.4745,-14.1494],[-60.4829,-14.1364],[-60.4743,-14.1267],[-60.4847,-14.1165],[-60.4748,-14.1106],[-60.4809,-14.0965],[-60.4605,-14.0926],[-60.4314,-14.0676],[-60.4282,-14.0496],[-60.4055,-14.0294],[-60.4043,-13.9974],[-60.382,-13.9864],[-60.3953,-13.9765],[-60.4163,-13.9788],[-60.4277,-13.9609],[-60.411,-13.9518],[-60.4188,-13.9373],[-60.429,-13.9424],[-60.4443,-13.9302],[-60.4511,-13.937],[-60.457,-13.8957],[-60.4506,-13.8845],[-60.4661,-13.883],[-60.469,-13.8919],[-60.4763,-13.8838],[-60.456,-13.8553],[-60.4929,-13.8557],[-60.4688,-13.8305],[-60.4828,-13.8325],[-60.4902,-13.8215],[-60.4701,-13.8227],[-60.4654,-13.8133],[-60.4785,-13.8029],[-60.4653,-13.7978],[-60.4985,-13.7881],[-60.5259,-13.7939],[-60.5184,-13.7757],[-60.5253,-13.7689],[-60.548,-13.7685],[-60.5504,-13.7813],[-60.5703,-13.7671],[-60.5664,-13.7574],[-60.5784,-13.7564],[-60.575,-13.7456],[-60.6055,-13.7468],[-60.6193,-13.7176],[-60.645,-13.7366],[-60.6816,-13.7168],[-60.6913,-13.6966],[-60.6962,-13.7127],[-60.7104,-13.6908],[-60.7697,-13.6823],[-60.7734,-13.6599],[-60.8112,-13.6548],[-60.8308,-13.6275],[-60.851,-13.6323],[-60.8812,-13.6154],[-60.9227,-13.5665],[-60.9182,-13.5435],[-60.9329,-13.5396],[-60.9572,-13.5513],[-60.9687,-13.535],[-61.0075,-13.5508],[-61.013,-13.5285],[-60.9983,-13.5286],[-61.0102,-13.5148],[-61.0078,-13.5024],[-60.9887,-13.5023],[-61.0154,-13.488],[-61.0457,-13.4842],[-61.0523,-13.4936],[-61.0373,-13.5024],[-61.0581,-13.5121],[-61.064,-13.5002],[-61.0928,-13.491],[-61.1052,-13.5318],[-61.127,-13.5197],[-61.1499,-13.5313],[-61.1555,-13.5168],[-61.1826,-13.5164],[-61.185,-13.5067],[-61.1824,-13.5262],[-61.1965,-13.536],[-61.2078,-13.5248],[-61.2241,-13.5277],[-61.2439,-13.4973],[-61.2787,-13.5064],[-61.2978,-13.4776],[-61.3082,-13.504],[-61.3317,-13.5037],[-61.3532,-13.5217],[-61.3946,-13.5206],[-61.4037,-13.5384],[-61.4727,-13.5538],[-61.5157,-13.54],[-63.5673,-14.6256],[-63.9747,-14.7289],[-63.9783,-14.7368],[-63.9663,-14.7505],[-63.9323,-14.7665],[-63.9261,-14.7797],[-63.9472,-14.8766],[-63.9395,-14.8959],[-63.9444,-14.9283],[-63.9337,-14.9367],[-63.9219,-14.9891],[-63.922,-14.9998],[-63.9408,-15.0128],[-63.9188,-15.0335],[-63.9637,-15.0693],[-63.942,-15.1104],[-63.9364,-15.1683],[-63.9244,-15.1596],[-63.9013,-15.1679],[-63.8842,-15.193],[-63.8961,-15.2095],[-63.8884,-15.2062],[-63.8822,-15.2205],[-63.8611,-15.2257],[-63.8628,-15.2558],[-63.8716,-15.2635],[-63.8535,-15.2702],[-63.8568,-15.3016],[-63.8322,-15.3288],[-63.8346,-15.3495],[-63.799,-15.3678],[-63.776,-15.3964],[-63.7756,-15.4033],[-63.7897,-15.4043],[-63.7797,-15.4073],[-63.7988,-15.4206],[-63.7941,-15.4285],[-63.7652,-15.4385],[-63.766,-15.4535],[-63.7572,-15.4543],[-63.7516,-15.4725],[-63.742,-15.4554],[-63.7433,-15.4658],[-63.733,-15.4689],[-63.7312,-15.4531],[-63.7118,-15.4899],[-63.7008,-15.483],[-63.6973,-15.4949],[-63.6807,-15.4975],[-63.6902,-15.5092],[-63.6786,-15.5159],[-63.6901,-15.5245],[-63.6825,-15.5375],[-63.6898,-15.5329],[-63.6935,-15.5543],[-63.6849,-15.5649],[-63.6934,-15.575],[-63.6535,-15.5813],[-63.6438,-15.5953],[-63.6467,-15.6094],[-63.6347,-15.6097],[-63.6322,-15.6192],[-63.6424,-15.6243],[-63.6244,-15.6378],[-63.618,-15.6318],[-63.5985,-15.6382],[-63.5987,-15.629],[-63.5848,-15.6336],[-63.574,-15.6655],[-63.5519,-15.6599],[-63.5509,-15.652],[-63.5383,-15.665],[-63.5248,-15.6555],[-63.5123,-15.6659],[-63.5075,-15.6833],[-63.4928,-15.6887],[-63.4927,-15.7046],[-63.476,-15.7062],[-63.4834,-15.7179],[-63.4751,-15.7169],[-63.4696,-15.7349],[-63.443,-15.7368],[-63.4296,-15.7506],[-63.4421,-15.7597],[-63.4315,-15.7648],[-63.4405,-15.7687],[-63.436,-15.7795],[-63.4455,-15.7785],[-63.4298,-15.7925],[-63.4406,-15.791],[-63.4323,-15.8092],[-63.4405,-15.8089],[-63.4346,-15.8197],[-63.4446,-15.8245],[-63.4308,-15.8258],[-63.4218,-15.8384],[-63.429,-15.846],[-63.4169,-15.8529],[-63.4038,-15.8445],[-63.4109,-15.8586],[-63.3857,-15.8598],[-63.3894,-15.8761],[-63.372,-15.8928],[-63.3603,-15.883],[-63.3623,-15.8959],[-64.7299,-15.802],[-64.7515,-15.8654],[-64.7308,-15.8783],[-64.7232,-15.8983],[-64.7469,-15.8948],[-64.7293,-15.9164],[-64.7506,-15.9256],[-64.7562,-15.9511],[-64.7261,-15.9519],[-64.7387,-15.9821],[-64.7275,-15.9815],[-64.7186,-15.9626],[-64.7093,-15.9703],[-64.7345,-15.9999],[-64.7306,-16.0062],[-64.7096,-16.0007],[-64.7018,-16.012],[-64.7218,-16.0091],[-64.7325,-16.0348],[-64.7194,-16.034],[-64.7244,-16.0178],[-64.7028,-16.0283],[-64.7159,-16.0586],[-64.7034,-16.0636],[-64.704,-16.0813],[-64.6883,-16.0949],[-64.6964,-16.1121],[-64.684,-16.1153],[-64.6778,-16.0985],[-64.6645,-16.0954],[-64.6845,-16.1267],[-64.6725,-16.1406],[-64.6815,-16.1814],[-64.6903,-16.1854],[-64.6954,-16.1701],[-64.7083,-16.1844],[-64.67,-16.2076],[-64.6772,-16.2369],[-64.6667,-16.241],[-64.6649,-16.2573],[-64.6936,-16.2913],[-64.6675,-16.2863],[-64.6468,-16.2981],[-64.6803,-16.3216],[-64.6443,-16.3192],[-64.6649,-16.3359],[-64.6703,-16.3692],[-64.6845,-16.3493],[-64.7073,-16.3443],[-64.7061,-16.355],[-64.6863,-16.3605],[-64.6946,-16.377],[-64.6639,-16.3709],[-64.6558,-16.3773],[-64.6803,-16.4089],[-64.6986,-16.4173],[-64.6783,-16.4287],[-64.6873,-16.4439],[-64.6738,-16.4756],[-64.7099,-16.4729],[-64.711,-16.4854],[-64.6879,-16.4845],[-64.7119,-16.497],[-64.7017,-16.5122],[-64.7089,-16.535],[-64.7258,-16.5308],[-64.7238,-16.5073],[-64.7493,-16.5103],[-64.7404,-16.5358],[-64.7611,-16.551],[-64.7503,-16.556],[-64.7479,-16.5876],[-64.7814,-16.6137],[-64.7903,-16.6326],[-64.7574,-16.6527],[-64.7579,-16.6777],[-64.7716,-16.6857],[-64.7668,-16.6614],[-64.7794,-16.6559],[-64.7889,-16.6875],[-64.8099,-16.6999],[-64.8068,-16.7115],[-64.7835,-16.7202],[-64.7834,-16.7443],[-64.7943,-16.7492],[-64.8034,-16.7355],[-64.8326,-16.7253],[-64.8421,-16.7365],[-64.8295,-16.7596],[-64.8351,-16.7735],[-64.8067,-16.7622],[-64.7957,-16.765],[-64.7977,-16.7742],[-64.8101,-16.7672],[-64.8161,-16.7741],[-64.8016,-16.7973],[-64.78,-16.8018],[-64.7923,-16.8225],[-64.7903,-16.8429],[-64.7785,-16.8458],[-64.7894,-16.8329],[-64.7815,-16.8254],[-64.7606,-16.8379],[-64.7751,-16.849],[-64.7696,-16.8615],[-64.7578,-16.852],[-64.7406,-16.8537],[-64.7701,-16.8699],[-64.7613,-16.8773],[-64.737,-16.8683],[-64.7596,-16.8939],[-64.7503,-16.8976],[-64.7352,-16.8861],[-64.7295,-16.9014],[-64.7503,-16.916],[-64.734,-16.914],[-64.7199,-16.9259],[-64.7368,-16.9234],[-64.7346,-16.9379],[-64.747,-16.9419],[-64.7306,-16.9541],[-64.7141,-16.9419],[-64.675,-16.9709],[-64.6779,-16.9791],[-64.6883,-16.969],[-64.7081,-16.9867],[-64.7082,-17.0004],[-64.6973,-17.0002],[-64.6962,-16.9852],[-64.6798,-16.9864],[-64.6726,-16.9979],[-64.6912,-16.9988],[-64.6847,-17.0211],[-64.6641,-17.0157],[-64.6611,-17.002],[-64.6287,-17.0052],[-64.6407,-17.0218],[-64.6378,-17.0383],[-64.6242,-17.0334],[-64.6288,-17.0243],[-64.6198,-17.0146],[-64.6174,-17.0352],[-64.6052,-17.0259],[-64.5882,-17.0349],[-64.5884,-17.0415],[-64.6116,-17.0408],[-64.5925,-17.054],[-64.5699,-17.0325],[-64.5644,-17.0414],[-64.5789,-17.0591],[-64.5552,-17.0696],[-64.5437,-17.055],[-64.5187,-17.0571],[-64.5496,-17.0869],[-64.5197,-17.0988],[-64.4997,-17.0914],[-64.4769,-17.1183],[-64.4872,-17.1353],[-64.4651,-17.1326],[-64.4545,-17.142],[-64.4353,-17.1298],[-64.4355,-17.1546],[-64.4275,-17.1595],[-64.4235,-17.141],[-64.4102,-17.1513],[-64.3952,-17.1402],[-64.3931,-17.1496],[-64.4104,-17.1571],[-64.3875,-17.1563],[-64.3986,-17.1763],[-64.3846,-17.1749],[-64.3762,-17.1892],[-64.3595,-17.1845],[-64.3323,-17.2013],[-64.3354,-17.2327],[-64.3209,-17.2398],[-64.3387,-17.2461],[-64.3402,-17.2636],[-64.3154,-17.2647],[-64.3034,-17.278],[-64.3102,-17.2585],[-64.285,-17.2642],[-64.2751,-17.2909],[-64.2459,-17.304],[-64.2341,-17.3737],[-64.2418,-17.3977],[-64.2539,-17.4058],[-64.2539,-17.4254],[-64.2812,-17.4254],[-64.3024,-17.4373],[-64.3316,-17.4219],[-64.3493,-17.4256],[-64.3589,-17.4455],[-64.3781,-17.4558],[-64.3995,-17.4502],[-64.4066,-17.4737],[-64.4004,-17.4941],[-64.412,-17.5191],[-64.4276,-17.5235],[-64.4323,-17.56],[-64.4907,-17.5594],[-64.5198,-17.534],[-64.5502,-17.5659],[-64.6029,-17.559],[-64.5888,-17.601],[-64.5926,-17.6191],[-64.6164,-17.6628],[-64.6277,-17.6591],[-64.641,-17.6764],[-64.6396,-17.7082],[-64.699,-17.7154],[-64.7132,-17.7316],[-64.746,-17.7359],[-64.7565,-17.7509],[-64.7737,-17.8195],[-64.7915,-17.8446],[-64.8064,-17.893],[-64.7866,-17.9333],[-64.8106,-17.9447],[-64.7851,-17.9789],[-64.7663,-17.986],[-64.7403,-18.0368],[-64.7175,-18.0454],[-64.7156,-18.0722],[-64.6919,-18.0988],[-64.6617,-18.1043],[-64.6167,-18.0937],[-64.6027,-18.1096],[-64.5424,-18.1385],[-64.5282,-18.1567],[-64.5229,-18.1814],[-64.5091,-18.1894],[-64.5147,-18.198],[-64.497,-18.2139],[-64.4993,-18.2347],[-64.4824,-18.2616],[-64.4844,-18.2952],[-64.465,-18.305],[-64.4708,-18.3115],[-64.4638,-18.3236],[-64.4347,-18.3362],[-64.4481,-18.372],[-64.4323,-18.3734],[-64.4283,-18.4179],[-64.4026,-18.451],[-64.3388,-18.4757],[-64.3249,-18.4981],[-64.3035,-18.5007],[-64.3003,-18.5339],[-64.2902,-18.5356],[-64.2853,-18.5543],[-64.2989,-18.5585],[-64.2814,-18.5963],[-64.2925,-18.617],[-64.2947,-18.6114],[-64.3159,-18.6291],[-64.3119,-18.6467],[-64.3181,-18.6434],[-64.3292,-18.6655]]]]}},{"type":"Feature","properties":{"name":"Beni","cod_dep":"08"},"geometry":{"type":"MultiPolygon","coordinates":[[[[-66.7954,-15.7851],[-66.8075,-15.8281],[-66.7663,-15.8464],[-66.6762,-15.911],[-66.6587,-15.9055],[-66.6388,-15.9159],[-66.6353,-15.9336],[-66.6155,-15.9517],[-66.5063,-15.9852],[-66.3674,-16.1041],[-66.3393,-16.1172],[-66.2311,-16.2857],[-66.1697,-16.3628],[-65.9713,-16.4669],[-65.8617,-16.4916],[-65.5948,-16.4602],[-65.2399,-16.3687],[-65.1397,-16.2366],[-65.1162,-16.188],[-65.0807,-15.9309],[-65.0412,-15.858],[-65.0027,-15.8215],[-64.9584,-15.801],[-64.7299,-15.802],[-63.3623,-15.8959],[-63.3603,-15.883],[-63.372,-15.8928],[-63.3894,-15.8761],[-63.3857,-15.8598],[-63.4109,-15.8586],[-63.4038,-15.8445],[-63.4169,-15.8529],[-63.429,-15.846],[-63.4218,-15.8384],[-63.4308,-15.8258],[-63.4446,-15.8245],[-63.4346,-15.8197],[-63.4405,-15.8089],[-63.4323,-15.8092],[-63.4406,-15.791],[-63.4298,-15.7925],[-63.4455,-15.7785],[-63.436,-15.7795],[-63.4405,-15.7687],[-63.4315,-15.7648],[-63.4421,-15.7597],[-63.4296,-15.7506],[-63.443,-15.7368],[-63.4696,-15.7349],[-63.4751,-15.7169],[-63.4834,-15.7179],[-63.476,-15.7062],[-63.4927,-15.7046],[-63.4928,-15.6887],[-63.5075,-15.6833],[-63.5123,-15.6659],[-63.5248,-15.6555],[-63.5383,-15.665],[-63.5509,-15.652],[-63.5519,-15.6599],[-63.574,-15.6655],[-63.5848,-15.6336],[-63.5987,-15.629],[-63.5985,-15.6382],[-63.618,-15.6318],[-63.6244,-15.6378],[-63.6424,-15.6243],[-63.6322,-15.6192],[-63.6347,-15.6097],[-63.6467,-15.6094],[-63.6438,-15.5953],[-63.6535,-15.5813],[-63.6934,-15.575],[-63.6849,-15.5649],[-63.6935,-15.5543],[-63.6898,-15.5329],[-63.6825,-15.5375],[-63.6901,-15.5245],[-63.6786,-15.5159],[-63.6902,-15.5092],[-63.6807,-15.4975],[-63.6973,-15.4949],[-63.7008,-15.483],[-63.7118,-15.4899],[-63.7312,-15.4531],[-63.733,-15.4689],[-63.7433,-15.4658],[-63.742,-15.4554],[-63.7516,-15.4725],[-63.7572,-15.4543],[-63.766,-15.4535],[-63.7652,-15.4385],[-63.7941,-15.4285],[-63.7988,-15.4206],[-63.7797,-15.4073],[-63.7897,-15.4043],[-63.7756,-15.4033],[-63.776,-15.3964],[-63.799,-15.3678],[-63.8346,-15.3495],[-63.8322,-15.3288],[-63.8568,-15.3016],[-63.8535,-15.2702],[-63.8716,-15.2635],[-63.8628,-15.2558],[-63.8611,-15.2257],[-63.8822,-15.2205],[-63.8884,-15.2062],[-63.8961,-15.2095],[-63.8842,-15.193],[-63.9013,-15.1679],[-63.9244,-15.1596],[-63.9364,-15.1683],[-63.942,-15.1104],[-63.9637,-15.0693],[-63.9188,-15.0335],[-63.9408,-15.0128],[-63.922,-14.9998],[-63.9219,-14.9891],[-63.9337,-14.9367],[-63.9444,-14.9283],[-63.9395,-14.8959],[-63.9472,-14.8766],[-63.9261,-14.7797],[-63.9323,-14.7665],[-63.9663,-14.7505],[-63.9783,-14.7368],[-63.9747,-14.7289],[-63.5673,-14.6256],[-61.5157,-13.54],[-61.5326,-13.5218],[-61.5749,-13.5154],[-61.5765,-13.4878],[-61.5879,-13.5025],[-61.6018,-13.501],[-61.6273,-13.5166],[-61.6439,-13.5057],[-61.6489,-13.519],[-61.6631,-13.5122],[-61.6631,-13.5029],[-61.6925,-13.4995],[-61.7031,-13.5155],[-61.7315,-13.527],[-61.7559,-13.5202],[-61.7534,-13.5351],[-61.7611,-13.5408],[-61.7755,-13.5163],[-61.7841,-13.5367],[-61.825,-13.5218],[-61.8314,-13.5316],[-61.8418,-13.5264],[-61.8592,-13.5365],[-61.8834,-13.4953],[-61.8798,-13.4715],[-61.8931,-13.4317],[-61.924,-13.4297],[-61.9391,-13.4076],[-61.9501,-13.4148],[-61.9672,-13.4081],[-61.9605,-13.3862],[-61.9736,-13.3692],[-61.9978,-13.3496],[-61.9992,-13.3582],[-62.0138,-13.3568],[-62.0149,-13.3308],[-62.0369,-13.3284],[-62.0588,-13.3104],[-62.0581,-13.2877],[-62.0725,-13.2966],[-62.0828,-13.2706],[-62.0992,-13.2706],[-62.1154,-13.2576],[-62.1072,-13.2255],[-62.1161,-13.1604],[-62.1316,-13.1479],[-62.1503,-13.1618],[-62.1516,-13.1479],[-62.1695,-13.1314],[-62.1699,-13.1123],[-62.1819,-13.1176],[-62.1849,-13.1469],[-62.1953,-13.1529],[-62.2132,-13.1109],[-62.2487,-13.1217],[-62.251,-13.1026],[-62.2612,-13.0948],[-62.2795,-13.0978],[-62.2973,-13.0781],[-62.297,-13.093],[-62.3072,-13.0928],[-62.3156,-13.1082],[-62.3212,-13.079],[-62.3358,-13.0805],[-62.354,-13.057],[-62.3596,-13.084],[-62.3693,-13.0795],[-62.3872,-13.106],[-62.4085,-13.1045],[-62.4192,-13.1172],[-62.4341,-13.102],[-62.4363,-13.0807],[-62.4591,-13.0854],[-62.4572,-13.0621],[-62.4709,-13.0656],[-62.479,-13.0565],[-62.4837,-13.0755],[-62.5043,-13.0819],[-62.5228,-13.0661],[-62.5443,-13.0744],[-62.6058,-13.0454],[-62.6162,-13.0333],[-62.6016,-13.0127],[-62.6299,-13.0157],[-62.6321,-12.9888],[-62.6541,-12.9879],[-62.6492,-12.9642],[-62.6998,-13.001],[-62.7271,-13.0012],[-62.7346,-13.0115],[-62.7522,-12.9993],[-62.7624,-13.0175],[-62.7953,-12.9951],[-62.8096,-12.9574],[-62.8057,-12.9405],[-62.8282,-12.9338],[-62.8397,-12.9482],[-62.8508,-12.944],[-62.8449,-12.9223],[-62.8714,-12.9099],[-62.8938,-12.8752],[-62.8936,-12.8565],[-62.9239,-12.8394],[-62.942,-12.8451],[-62.9471,-12.8591],[-62.9542,-12.8462],[-62.981,-12.8542],[-62.9861,-12.837],[-63.0069,-12.8392],[-63.0087,-12.8108],[-63.0204,-12.8059],[-63.02,-12.7908],[-63.0358,-12.7768],[-63.0499,-12.7342],[-63.0809,-12.7239],[-63.0815,-12.7069],[-63.0628,-12.6946],[-63.064,-12.6843],[-63.0981,-12.6815],[-63.0932,-12.6597],[-63.1389,-12.646],[-63.1592,-12.6136],[-63.1682,-12.6232],[-63.1637,-12.6409],[-63.1912,-12.623],[-63.1946,-12.6535],[-63.2459,-12.6637],[-63.2322,-12.6833],[-63.2411,-12.6906],[-63.2897,-12.6833],[-63.3517,-12.6569],[-63.3706,-12.6596],[-63.3971,-12.6398],[-63.4096,-12.612],[-63.4402,-12.6071],[-63.4277,-12.5929],[-63.438,-12.5815],[-63.4356,-12.566],[-63.499,-12.5665],[-63.5574,-12.5048],[-63.6892,-12.4498],[-63.7329,-12.4385],[-63.7676,-12.441],[-63.7849,-12.429],[-63.8349,-12.4641],[-63.8883,-12.4465],[-63.899,-12.5034],[-63.9512,-12.5306],[-63.9964,-12.501],[-64.0105,-12.5179],[-64.0207,-12.51],[-64.0426,-12.5146],[-64.0579,-12.4906],[-64.0754,-12.4997],[-64.1005,-12.4867],[-64.123,-12.5061],[-64.124,-12.4869],[-64.1378,-12.4783],[-64.1466,-12.4895],[-64.1426,-12.502],[-64.164,-12.5139],[-64.1739,-12.5046],[-64.1743,-12.4671],[-64.1987,-12.4727],[-64.2287,-12.4544],[-64.2873,-12.5033],[-64.3001,-12.4916],[-64.295,-12.4579],[-64.3666,-12.4604],[-64.4058,-12.4465],[-64.4631,-12.3839],[-64.5087,-12.3608],[-64.5146,-12.343],[-64.4992,-12.3235],[-64.4937,-12.2888],[-64.5135,-12.2234],[-64.5552,-12.2384],[-64.5781,-12.2108],[-64.6157,-12.2164],[-64.7028,-12.1822],[-64.7182,-12.1475],[-64.7136,-12.1198],[-64.6991,-12.1006],[-64.7086,-12.0859],[-64.7369,-12.0962],[-64.7401,-12.1413],[-64.7539,-12.1573],[-64.7686,-12.1477],[-64.76,-12.1078],[-64.7765,-12.0901],[-64.8039,-12.0867],[-64.8258,-12.1214],[-64.8416,-12.1097],[-64.8403,-12.0875],[-64.8105,-12.0587],[-64.835,-12.0129],[-64.8745,-12.0125],[-64.9213,-12.028],[-64.9469,-11.9942],[-64.9634,-11.9975],[-64.9785,-12.0192],[-65.0031,-11.9949],[-65.0365,-11.9957],[-65.0276,-11.9717],[-65.0431,-11.9639],[-65.0265,-11.9418],[-65.0179,-11.8964],[-65.0571,-11.8856],[-65.0737,-11.8658],[-65.0598,-11.798],[-65.0828,-11.7134],[-65.0971,-11.7038],[-65.1323,-11.7231],[-65.1842,-11.7212],[-65.1931,-11.7322],[-65.174,-11.7466],[-65.1853,-11.7565],[-65.2571,-11.7141],[-65.2596,-11.6989],[-65.2245,-11.6648],[-65.2326,-11.5672],[-65.2115,-11.5337],[-65.2257,-11.5158],[-65.3045,-11.5014],[-65.3101,-11.4909],[-65.3335,-11.3397],[-65.2988,-11.3355],[-65.29,-11.3208],[-65.3371,-11.3126],[-65.347,-11.3025],[-65.3619,-11.2243],[-65.3492,-11.2109],[-65.3217,-11.2074],[-65.3152,-11.1934],[-65.3255,-11.1818],[-65.3512,-11.1873],[-65.3625,-11.1482],[-65.3399,-11.1127],[-65.2833,-11.0901],[-65.2798,-11.0654],[-65.3005,-11.0294],[-65.2507,-10.9841],[-65.273,-10.9545],[-65.2664,-10.9157],[-65.274,-10.8748],[-65.3163,-10.8257],[-65.3618,-10.7918],[-65.3443,-10.7709],[-65.3431,-10.7036],[-65.3526,-10.6625],[-65.4061,-10.6375],[-65.4107,-10.6068],[-65.3955,-10.5817],[-65.4205,-10.536],[-65.4115,-10.5056],[-65.4305,-10.4823],[-65.424,-10.4644],[-65.3986,-10.4584],[-65.3805,-10.4276],[-65.3785,-10.4077],[-65.3911,-10.3812],[-65.4082,-10.414],[-65.4482,-10.4147],[-65.4838,-10.4382],[-65.4913,-10.4723],[-65.5099,-10.4968],[-65.5554,-10.5078],[-65.5872,-10.5368],[-65.6196,-10.541],[-65.6333,-10.5636],[-65.7278,-10.5668],[-65.7342,-10.5916],[-65.7019,-10.6514],[-65.7111,-10.6836],[-65.7335,-10.707],[-65.8201,-10.7442],[-65.8602,-10.6926],[-65.88,-10.6934],[-65.9055,-10.7409],[-65.8518,-10.7844],[-65.854,-10.8339],[-65.9149,-10.8274],[-65.9757,-10.797],[-66.0764,-10.8516],[-66.0629,-10.8661],[-66.0285,-10.8545],[-66.013,-10.8638],[-66.0473,-10.903],[-66.0579,-10.9866],[-66.0922,-10.9901],[-66.1072,-11.0159],[-66.0981,-11.0515],[-66.1439,-11.0461],[-66.1234,-11.0838],[-66.1264,-11.1183],[-66.1574,-11.1344],[-66.1778,-11.0847],[-66.1923,-11.0769],[-66.2141,-11.1122],[-66.1909,-11.1454],[-66.1888,-11.1876],[-66.2372,-11.2198],[-66.2412,-11.2037],[-66.2542,-11.1983],[-66.2698,-11.2169],[-66.2744,-11.2381],[-66.2438,-11.2671],[-66.2561,-11.2761],[-66.2646,-11.2618],[-66.2763,-11.2616],[-66.2812,-11.2767],[-66.2273,-11.3222],[-66.2282,-11.3405],[-66.2818,-11.3165],[-66.3176,-11.3175],[-66.3383,-11.3348],[-66.3333,-11.3476],[-66.3125,-11.3462],[-66.3126,-11.3583],[-66.3827,-11.3792],[-66.4302,-11.3737],[-66.4622,-11.3854],[-66.4602,-11.4193],[-66.4957,-11.4442],[-66.5402,-11.4093],[-66.5821,-11.4297],[-66.6374,-11.4255],[-66.6395,-11.4733],[-66.6891,-11.4434],[-66.7178,-11.458],[-66.7318,-11.4853],[-66.696,-11.4972],[-66.6757,-11.5592],[-66.7407,-11.573],[-66.7629,-11.5913],[-66.7369,-11.6092],[-66.7158,-11.6033],[-66.7358,-11.6548],[-66.7037,-11.6541],[-66.7072,-11.677],[-66.7613,-11.7081],[-66.7649,-11.736],[-66.7765,-11.7442],[-66.7962,-11.7339],[-66.77,-11.6987],[-66.8162,-11.6961],[-66.8292,-11.7126],[-66.8399,-11.7664],[-66.8701,-11.7429],[-66.9104,-11.7471],[-66.918,-11.7806],[-66.8804,-11.7739],[-66.874,-11.8077],[-66.8563,-11.8166],[-66.8936,-11.8579],[-66.9343,-11.8766],[-66.949,-11.8726],[-66.955,-11.8969],[-66.9737,-11.8882],[-66.9826,-11.8979],[-66.9581,-11.9388],[-66.9509,-11.9349],[-66.9606,-11.9154],[-66.946,-11.9099],[-66.9265,-11.9279],[-66.9331,-11.95],[-66.9102,-11.9456],[-66.894,-12.0059],[-66.9103,-12.0513],[-66.8906,-12.0561],[-66.8731,-12.1064],[-66.9254,-12.1615],[-66.9207,-12.1843],[-66.8892,-12.2],[-66.8869,-12.2513],[-66.9093,-12.2847],[-66.948,-12.3023],[-66.946,-12.3264],[-66.9067,-12.342],[-66.8972,-12.3668],[-66.9611,-12.413],[-66.9674,-12.4264],[-66.9327,-12.4722],[-66.9526,-12.4751],[-66.9675,-12.49],[-66.9555,-12.5085],[-66.9174,-12.5338],[-66.9695,-12.5679],[-66.977,-12.5927],[-66.9467,-12.5993],[-66.9265,-12.6256],[-66.9368,-12.6341],[-66.9535,-12.6259],[-66.9589,-12.6483],[-66.9752,-12.6569],[-66.9471,-12.671],[-66.9394,-12.685],[-66.9717,-12.6924],[-66.9538,-12.7207],[-66.9563,-12.7331],[-66.9831,-12.7333],[-66.969,-12.7689],[-66.9477,-12.7903],[-66.954,-12.8022],[-66.9835,-12.783],[-66.9831,-12.8097],[-66.944,-12.8234],[-66.9465,-12.8388],[-66.9694,-12.8369],[-66.9763,-12.8511],[-66.9902,-12.8512],[-66.9951,-12.8886],[-67.0188,-12.884],[-67.0348,-12.8924],[-67.0336,-12.9089],[-66.9988,-12.9191],[-67.0367,-12.9319],[-67.0466,-12.9531],[-67.0384,-12.9741],[-67.0702,-12.9943],[-67.0434,-13.0131],[-67.0467,-13.0513],[-67.0576,-13.0512],[-67.0654,-13.0287],[-67.0935,-13.0457],[-67.096,-13.0255],[-67.1113,-13.0311],[-67.1009,-13.0532],[-67.1064,-13.0685],[-67.1168,-13.0657],[-67.1148,-13.0479],[-67.1481,-13.0529],[-67.1345,-13.0922],[-67.1591,-13.103],[-67.166,-13.1238],[-67.1834,-13.1209],[-67.1871,-13.1278],[-67.1694,-13.1348],[-67.1602,-13.1664],[-67.2256,-13.1684],[-67.2256,-13.1784],[-67.1979,-13.1953],[-67.238,-13.1938],[-67.2667,-13.2096],[-67.2512,-13.2583],[-67.2653,-13.2572],[-67.2757,-13.2417],[-67.294,-13.2477],[-67.2867,-13.26],[-67.2643,-13.2658],[-67.2664,-13.2928],[-67.2861,-13.304],[-67.294,-13.2725],[-67.303,-13.2849],[-67.3002,-13.3051],[-67.357,-13.3479],[-67.3303,-13.3556],[-67.3287,-13.3658],[-67.3902,-13.3968],[-67.3772,-13.42],[-67.3963,-13.4266],[-67.3959,-13.4377],[-67.3553,-13.4448],[-67.3589,-13.4554],[-67.3888,-13.4562],[-67.3852,-13.4817],[-67.3742,-13.4855],[-67.3601,-13.4692],[-67.3478,-13.4715],[-67.3755,-13.4994],[-67.3754,-13.5159],[-67.3965,-13.5186],[-67.4045,-13.5295],[-67.3819,-13.5386],[-67.3798,-13.5661],[-67.3535,-13.5696],[-67.3645,-13.5876],[-67.3633,-13.609],[-67.3882,-13.6035],[-67.3635,-13.6382],[-67.3934,-13.6407],[-67.4371,-13.6602],[-67.4355,-13.6834],[-67.4171,-13.7043],[-67.4315,-13.7103],[-67.4282,-13.736],[-67.4486,-13.7293],[-67.4588,-13.7127],[-67.461,-13.7263],[-67.4505,-13.7384],[-67.4735,-13.7495],[-67.4839,-13.7664],[-67.5252,-13.7831],[-67.5212,-13.7931],[-67.4817,-13.7946],[-67.5159,-13.8327],[-67.4962,-13.8385],[-67.4864,-13.8536],[-67.4646,-13.8395],[-67.4596,-13.8461],[-67.4797,-13.884],[-67.5119,-13.9062],[-67.5112,-13.9141],[-67.4943,-13.9087],[-67.4847,-13.9151],[-67.5325,-13.9599],[-67.5395,-13.9826],[-67.527,-14.0172],[-67.5484,-14.0315],[-67.4941,-14.0648],[-67.5167,-14.0876],[-67.5456,-14.0874],[-67.5504,-14.0966],[-67.5397,-14.1101],[-67.5152,-14.1033],[-67.5048,-14.1124],[-67.5347,-14.1659],[-67.5339,-14.1945],[-67.5091,-14.2273],[-67.5203,-14.2533],[-67.4751,-14.28],[-67.4731,-14.2919],[-67.4827,-14.2986],[-67.517,-14.2941],[-67.5606,-14.3379],[-67.5596,-14.3469],[-67.542,-14.3407],[-67.5363,-14.3488],[-67.538,-14.3602],[-67.5581,-14.3695],[-67.5417,-14.3861],[-67.5597,-14.4055],[-67.5329,-14.4171],[-67.5345,-14.4478],[-67.5091,-14.493],[-67.4852,-14.4942],[-67.4816,-14.5035],[-67.4967,-14.5223],[-67.4994,-14.5609],[-67.5377,-14.5931],[-67.526,-14.615],[-67.5291,-14.6377],[-67.5216,-14.6393],[-67.5279,-14.6535],[-67.5104,-14.6448],[-67.5139,-14.6577],[-67.4896,-14.6795],[-67.4973,-14.6863],[-67.476,-14.6864],[-67.4795,-14.6977],[-67.437,-14.736],[-67.4271,-14.7357],[-67.4276,-14.7478],[-67.4157,-14.746],[-67.4235,-14.7633],[-67.4144,-14.7624],[-67.4041,-14.795],[-67.3926,-14.7959],[-67.399,-14.8172],[-67.3879,-14.8203],[-67.4068,-14.8267],[-67.3989,-14.8357],[-67.4089,-14.8341],[-67.4031,-14.8435],[-67.4105,-14.845],[-67.4035,-14.8506],[-67.4097,-14.8605],[-67.4011,-14.8631],[-67.4315,-14.8941],[-67.4157,-14.9083],[-67.4286,-14.9222],[-67.4179,-14.9281],[-67.4224,-14.9456],[-67.4133,-14.9523],[-67.4192,-14.9708],[-67.4072,-14.9729],[-67.4136,-14.9929],[-67.3937,-14.9884],[-67.4011,-14.995],[-67.3962,-15.0094],[-67.3607,-15.0324],[-67.3548,-15.0216],[-67.3521,-15.0368],[-67.3443,-15.03],[-67.3355,-15.0441],[-67.3286,-15.0378],[-67.3184,-15.0455],[-67.3153,-15.0371],[-67.3038,-15.0441],[-67.2902,-15.0272],[-67.2913,-15.0372],[-67.2788,-15.0293],[-67.2796,-15.043],[-67.242,-15.0557],[-67.2375,-15.115],[-67.2132,-15.1126],[-67.1921,-15.1372],[-67.1957,-15.1548],[-67.19,-15.1479],[-67.171,-15.1643],[-67.1666,-15.1849],[-67.1571,-15.1848],[-67.1381,-15.2189],[-67.1391,-15.2343],[-67.1273,-15.2489],[-67.1365,-15.2506],[-67.1294,-15.2687],[-67.1357,-15.2732],[-67.1137,-15.2803],[-67.0823,-15.3123],[-67.0891,-15.3538],[-67.1168,-15.388],[-67.1114,-15.4003],[-67.0905,-15.4082],[-67.0632,-15.4431],[-67.003,-15.4765],[-67.0027,-15.4851],[-66.9508,-15.5248],[-66.9318,-15.5515],[-66.9343,-15.566],[-66.8996,-15.6041],[-66.9069,-15.6402],[-66.8734,-15.694],[-66.7954,-15.7851]]]]}},{"type":"Feature","properties":{"name":"Pando","cod_dep":"09"},"geometry":{"type":"MultiPolygon","coordinates":[[[[-68.652,-12.4977],[-68.6183,-12.4954],[-68.5586,-12.4542],[-68.5911,-12.4036],[-68.5836,-12.3936],[-68.5137,-12.3967],[-68.472,-12.4232],[-68.4193,-12.382],[-68.4016,-12.3498],[-68.4029,-12.3028],[-68.415,-12.2746],[-68.4041,-12.2543],[-68.3582,-12.2225],[-68.2928,-12.2246],[-68.2443,-12.1874],[-68.2342,-12.1693],[-68.2253,-12.1271],[-68.2366,-12.0128],[-68.1842,-12.0112],[-68.0984,-12.0349],[-67.9812,-11.9414],[-67.9757,-11.9091],[-67.9975,-11.854],[-67.9616,-11.8397],[-66.9611,-12.413],[-66.8972,-12.3668],[-66.9067,-12.342],[-66.946,-12.3264],[-66.948,-12.3023],[-66.9093,-12.2847],[-66.8869,-12.2513],[-66.8892,-12.2],[-66.9207,-12.1843],[-66.9254,-12.1615],[-66.8731,-12.1064],[-66.8906,-12.0561],[-66.9103,-12.0513],[-66.894,-12.0059],[-66.9102,-11.9456],[-66.9331,-11.95],[-66.9265,-11.9279],[-66.946,-11.9099],[-66.9606,-11.9154],[-66.9509,-11.9349],[-66.9581,-11.9388],[-66.9826,-11.8979],[-66.9737,-11.8882],[-66.955,-11.8969],[-66.949,-11.8726],[-66.9343,-11.8766],[-66.8936,-11.8579],[-66.8563,-11.8166],[-66.874,-11.8077],[-66.8804,-11.7739],[-66.918,-11.7806],[-66.9104,-11.7471],[-66.8701,-11.7429],[-66.8399,-11.7664],[-66.8292,-11.7126],[-66.8162,-11.6961],[-66.77,-11.6987],[-66.7962,-11.7339],[-66.7765,-11.7442],[-66.7649,-11.736],[-66.7613,-11.7081],[-66.7072,-11.677],[-66.7037,-11.6541],[-66.7358,-11.6548],[-66.7158,-11.6033],[-66.7369,-11.6092],[-66.7629,-11.5913],[-66.7407,-11.573],[-66.6757,-11.5592],[-66.696,-11.4972],[-66.7318,-11.4853],[-66.7178,-11.458],[-66.6891,-11.4434],[-66.6395,-11.4733],[-66.6374,-11.4255],[-66.5821,-11.4297],[-66.5402,-11.4093],[-66.4957,-11.4442],[-66.4602,-11.4193],[-66.4622,-11.3854],[-66.4302,-11.3737],[-66.3827,-11.3792],[-66.3126,-11.3583],[-66.3125,-11.3462],[-66.3333,-11.3476],[-66.3383,-11.3348],[-66.3176,-11.3175],[-66.2818,-11.3165],[-66.2282,-11.3405],[-66.2273,-11.3222],[-66.2812,-11.2767],[-66.2763,-11.2616],[-66.2646,-11.2618],[-66.2561,-11.2761],[-66.2438,-11.2671],[-66.2744,-11.2381],[-66.2698,-11.2169],[-66.2542,-11.1983],[-66.2412,-11.2037],[-66.2372,-11.2198],[-66.1888,-11.1876],[-66.1909,-11.1454],[-66.2141,-11.1122],[-66.1923,-11.0769],[-66.1778,-11.0847],[-66.1574,-11.1344],[-66.1264,-11.1183],[-66.1234,-11.0838],[-66.1439,-11.0461],[-66.0981,-11.0515],[-66.1072,-11.0159],[-66.0922,-10.9901],[-66.0579,-10.9866],[-66.0473,-10.903],[-66.013,-10.8638],[-66.0285,-10.8545],[-66.0629,-10.8661],[-66.0764,-10.8516],[-65.9757,-10.797],[-65.9149,-10.8274],[-65.854,-10.8339],[-65.8518,-10.7844],[-65.9055,-10.7409],[-65.88,-10.6934],[-65.8602,-10.6926],[-65.8201,-10.7442],[-65.7335,-10.707],[-65.7111,-10.6836],[-65.7019,-10.6514],[-65.7342,-10.5916],[-65.7278,-10.5668],[-65.6333,-10.5636],[-65.6196,-10.541],[-65.5872,-10.5368],[-65.5554,-10.5078],[-65.5099,-10.4968],[-65.4913,-10.4723],[-65.4838,-10.4382],[-65.4482,-10.4147],[-65.4082,-10.414],[-65.3911,-10.3812],[-65.3835,-10.3609],[-65.3267,-10.3048],[-65.3125,-10.2548],[-65.2919,-10.2237],[-65.3078,-10.1733],[-65.3045,-10.0986],[-65.3304,-10.0637],[-65.3206,-10.0039],[-65.3336,-9.9727],[-65.3351,-9.9359],[-65.2869,-9.8566],[-65.2915,-9.8404],[-65.3229,-9.8158],[-65.3258,-9.7896],[-65.3623,-9.7145],[-65.3876,-9.6924],[-65.4382,-9.6696],[-65.4389,-9.6963],[-65.4688,-9.7156],[-65.4854,-9.7098],[-65.4804,-9.7301],[-65.5,-9.7302],[-65.5024,-9.7868],[-65.5145,-9.7941],[-65.5335,-9.7825],[-65.5379,-9.8009],[-65.5665,-9.8129],[-65.5533,-9.835],[-65.5595,-9.8458],[-65.5692,-9.8381],[-65.5993,-9.8428],[-65.599,-9.8265],[-65.6287,-9.839],[-65.6371,-9.8064],[-65.6508,-9.8189],[-65.6555,-9.81],[-65.6458,-9.7971],[-65.6731,-9.7829],[-65.6912,-9.815],[-65.7117,-9.8104],[-65.7024,-9.7933],[-65.7098,-9.7675],[-65.6829,-9.7685],[-65.688,-9.7503],[-65.7292,-9.7602],[-65.7473,-9.7841],[-65.7754,-9.762],[-65.7719,-9.7388],[-65.7825,-9.7426],[-65.7781,-9.7692],[-65.797,-9.795],[-65.8156,-9.7772],[-65.8053,-9.7604],[-65.8232,-9.7604],[-65.8457,-9.7944],[-65.86,-9.7988],[-65.8745,-9.7957],[-65.8653,-9.7704],[-65.8759,-9.7563],[-65.89,-9.7556],[-65.9051,-9.7697],[-65.9243,-9.756],[-65.9384,-9.7717],[-65.9458,-9.7628],[-65.9755,-9.7785],[-65.9754,-9.8],[-65.9661,-9.8028],[-65.983,-9.8032],[-65.9836,-9.811],[-66.0059,-9.7983],[-66.0247,-9.8164],[-66.0343,-9.7925],[-66.0725,-9.7883],[-66.0859,-9.7936],[-66.0786,-9.7993],[-66.0935,-9.8184],[-66.1019,-9.7876],[-66.1213,-9.7962],[-66.1502,-9.7894],[-66.1929,-9.8113],[-66.1837,-9.8238],[-66.1924,-9.8222],[-66.1911,-9.832],[-66.2025,-9.8394],[-66.2314,-9.8168],[-66.2518,-9.8353],[-66.2809,-9.8339],[-66.2819,-9.8448],[-66.314,-9.8299],[-66.3494,-9.8388],[-66.3603,-9.8669],[-66.4034,-9.863],[-66.4248,-9.8897],[-66.4136,-9.8954],[-66.4278,-9.8999],[-66.4335,-9.8942],[-66.4249,-9.8732],[-66.4335,-9.8657],[-66.4608,-9.8734],[-66.4568,-9.8798],[-66.4844,-9.8668],[-66.4974,-9.8844],[-66.507,-9.8734],[-66.5322,-9.8867],[-66.546,-9.8768],[-66.5529,-9.8891],[-66.5646,-9.8808],[-66.5847,-9.9062],[-66.624,-9.897],[-66.6377,-9.9144],[-66.6293,-9.9226],[-66.638,-9.9305],[-66.6281,-9.9357],[-66.6386,-9.9513],[-66.6583,-9.9377],[-66.676,-9.9695],[-66.7187,-9.976],[-66.7417,-9.9992],[-66.7608,-10.0],[-66.7713,-10.0179],[-66.7923,-10.0233],[-66.8089,-10.0493],[-66.8375,-10.0636],[-66.8383,-10.0829],[-66.8747,-10.0815],[-66.8738,-10.102],[-66.8808,-10.0967],[-66.9033,-10.1279],[-66.9185,-10.1307],[-66.911,-10.1467],[-66.9247,-10.1434],[-66.9465,-10.1586],[-66.9521,-10.1862],[-66.9619,-10.1821],[-66.9697,-10.1915],[-66.9759,-10.185],[-66.982,-10.1891],[-66.9754,-10.1946],[-66.9959,-10.1982],[-67.0009,-10.2179],[-66.99,-10.2218],[-67.0067,-10.2311],[-67.0159,-10.2585],[-67.0416,-10.2621],[-67.0493,-10.2766],[-67.0794,-10.2904],[-67.0979,-10.2835],[-67.1256,-10.2914],[-67.1405,-10.3076],[-67.1282,-10.3176],[-67.1694,-10.3371],[-67.185,-10.3374],[-67.1931,-10.3233],[-67.2166,-10.3226],[-67.2226,-10.3135],[-67.2636,-10.3325],[-67.2853,-10.3186],[-67.3179,-10.3201],[-67.3281,-10.3369],[-67.3121,-10.3786],[-67.3454,-10.3789],[-67.3544,-10.3947],[-67.369,-10.3788],[-67.3953,-10.385],[-67.4073,-10.3775],[-67.4235,-10.3953],[-67.4142,-10.4044],[-67.4133,-10.4267],[-67.4331,-10.4332],[-67.4529,-10.4652],[-67.4688,-10.4574],[-67.4869,-10.4718],[-67.512,-10.4754],[-67.5224,-10.493],[-67.541,-10.4883],[-67.5647,-10.4973],[-67.5714,-10.5149],[-67.5993,-10.5289],[-67.6082,-10.5627],[-67.6324,-10.5798],[-67.641,-10.6011],[-67.6625,-10.6169],[-67.6756,-10.6052],[-67.7075,-10.7099],[-67.736,-10.712],[-67.761,-10.6838],[-67.8643,-10.6396],[-67.8863,-10.6382],[-67.894,-10.6464],[-67.9098,-10.6403],[-67.932,-10.6542],[-67.9644,-10.6487],[-67.9797,-10.6606],[-68.013,-10.6491],[-68.04,-10.6694],[-68.0557,-10.6704],[-68.1073,-10.7186],[-68.0991,-10.7497],[-68.1072,-10.7815],[-68.1818,-10.8569],[-68.1953,-10.8593],[-68.2085,-10.9066],[-68.2246,-10.9152],[-68.2367,-10.961],[-68.2774,-10.9906],[-68.3103,-10.9961],[-68.3316,-11.0159],[-68.351,-11.0071],[-68.3752,-11.0147],[-68.3869,-11.0219],[-68.3887,-11.0487],[-68.4029,-11.0565],[-68.429,-11.0356],[-68.4467,-11.0494],[-68.492,-11.0573],[-68.5213,-11.0894],[-68.5419,-11.0968],[-68.5448,-11.1088],[-68.7155,-11.1474],[-68.7109,-11.1367],[-68.7218,-11.1073],[-68.748,-11.0963],[-68.766,-11.069],[-68.7476,-11.0116],[-68.7624,-11.0187],[-68.7592,-11.0046],[-68.779,-10.9989],[-68.7888,-11.0151],[-68.7891,-11.0028],[-68.7977,-11.0003],[-68.7927,-10.9904],[-68.8248,-11.0065],[-68.8267,-10.9964],[-68.8416,-11.0023],[-68.847,-10.9924],[-68.8592,-11.0166],[-68.8833,-11.0092],[-68.8804,-11.0217],[-68.8947,-11.0067],[-68.9113,-11.0226],[-68.937,-11.0046],[-68.9482,-11.0109],[-68.9572,-11.0001],[-68.9523,-10.9909],[-68.9713,-10.9886],[-68.9918,-11.0121],[-69.0383,-10.9773],[-69.0486,-10.9819],[-69.0513,-10.9752],[-69.0609,-10.9864],[-69.0724,-10.9677],[-69.1039,-10.9813],[-69.1118,-10.9717],[-69.118,-10.9812],[-69.1228,-10.967],[-69.1483,-10.9726],[-69.144,-10.9648],[-69.1548,-10.9562],[-69.1647,-10.9664],[-69.1851,-10.9489],[-69.2159,-10.9584],[-69.2322,-10.9402],[-69.2388,-10.9515],[-69.2581,-10.9462],[-69.2515,-10.9394],[-69.2718,-10.9424],[-69.2758,-10.9538],[-69.2825,-10.944],[-69.3036,-10.9486],[-69.3228,-10.9366],[-69.3288,-10.9504],[-69.3349,-10.9418],[-69.3426,-10.9522],[-69.3521,-10.936],[-69.358,-10.9452],[-69.3737,-10.9405],[-69.3734,-10.9559],[-69.3875,-10.9337],[-69.3952,-10.9349],[-69.3922,-10.9457],[-69.4007,-10.9308],[-69.4128,-10.9374],[-69.4209,-10.9257],[-69.4291,-10.9381],[-69.4527,-10.9379],[-69.454,-10.9494],[-69.4771,-10.9451],[-69.4795,-10.9548],[-69.5022,-10.9368],[-69.5102,-10.9433],[-69.5388,-10.9372],[-69.5472,-10.9536],[-69.5747,-10.9452],[-68.9674,-11.9136],[-68.652,-12.4977]]]]}}]}